{"type":"FeatureCollection","properties":{"corridor":"I25","geometryVersion":1,"source":"OpenStreetMap","attribution":"\u00a9 OpenStreetMap contributors","license":"https://www.openstreetmap.org/copyright"},"features":[{"type":"Feature","properties":{"corridor":"I25","direction":"NORTHBOUND","geometryVersion":1,"source":"OpenStreetMap","sourceRelationId":2333676,"sourceRelationVersion":266,"sourceTimestamp":"2026-04-30T20:54:01Z","monitoredMileStart":208.0,"monitoredMileEnd":271.0},"geometry":{"type":"LineString","coordinates":[[-104.9991031,39.71152],[-104.9995211,39.7122301],[-104.9998254,39.7127415],[-105.0002435,39.7134192],[-105.0005026,39.7138258],[-105.0007523,39.7142209],[-105.0010284,39.7146797],[-105.0011653,39.7148892],[-105.0013676,39.7151719],[-105.00154,39.7154228],[-105.0017114,39.7156578],[-105.0018616,39.7158385],[-105.0019752,39.7159672],[-105.0020638,39.7160635],[-105.0021671,39.7161684],[-105.0022797,39.716279],[-105.0023888,39.716379],[-105.0024999,39.7164738],[-105.0026477,39.7165937],[-105.0027488,39.7166721],[-105.0029147,39.716793],[-105.0030752,39.716903],[-105.003388,39.7171186],[-105.0037523,39.7173641],[-105.0044057,39.7178004],[-105.0048008,39.718065],[-105.0049986,39.7182061],[-105.0052145,39.7183595],[-105.0053635,39.7184703],[-105.0056061,39.7186641],[-105.0058362,39.71885],[-105.0059999,39.7189948],[-105.0061728,39.7191495],[-105.0063657,39.7193312],[-105.0070232,39.7199439],[-105.0078912,39.7207648],[-105.008464,39.7212918],[-105.0086191,39.7214353],[-105.0087817,39.7215817],[-105.008941,39.7217258],[-105.0092394,39.7219652],[-105.0094019,39.7220887],[-105.0095707,39.7222149],[-105.0098149,39.7223904],[-105.0101144,39.7226021],[-105.0105826,39.7229363],[-105.0109809,39.7232324],[-105.0111224,39.7233506],[-105.0112999,39.7235],[-105.0114599,39.7236444],[-105.0116241,39.7237948],[-105.0117929,39.7239519],[-105.0119434,39.7241028],[-105.0120743,39.724243],[-105.0122376,39.7244191],[-105.0124365,39.7246545],[-105.012665,39.724944],[-105.0128119,39.7251374],[-105.0129629,39.7253439],[-105.0131327,39.7255806],[-105.0133074,39.7258442],[-105.0135021,39.7261608],[-105.013641,39.7263873],[-105.013739,39.7265508],[-105.013817,39.7267034],[-105.0139127,39.7269135],[-105.0139962,39.727093],[-105.014081,39.7272806],[-105.0141367,39.7274135],[-105.0142577,39.7277169],[-105.0143732,39.7280225],[-105.0145086,39.7283895],[-105.014622,39.7287138],[-105.0147695,39.7291208],[-105.0149212,39.7295266],[-105.0150892,39.7300163],[-105.0151965,39.7303158],[-105.0152999,39.7306309],[-105.0153836,39.7308828],[-105.0154579,39.7311828],[-105.0155,39.7313816],[-105.0155341,39.7315496],[-105.0155602,39.7317307],[-105.0155957,39.7321519],[-105.0156026,39.7323444],[-105.0155901,39.7325625],[-105.0155769,39.732753],[-105.0155547,39.7329427],[-105.015532,39.7331215],[-105.0155206,39.7331958],[-105.0154976,39.733312],[-105.0154815,39.7333829],[-105.0154393,39.7335518],[-105.0153991,39.7337028],[-105.0153538,39.7338511],[-105.0153066,39.7339986],[-105.0152571,39.734141],[-105.015206,39.7342698],[-105.0151486,39.7344045],[-105.0150931,39.7345369],[-105.015034,39.7346708],[-105.0149185,39.7349145],[-105.0147114,39.7352946],[-105.0145443,39.7356243],[-105.0144456,39.735829],[-105.0143356,39.7360804],[-105.0142484,39.7363048],[-105.0141849,39.7364881],[-105.0141186,39.7366865],[-105.0140628,39.7368715],[-105.0140277,39.7370048],[-105.0140058,39.737135],[-105.0139954,39.7371957],[-105.013959,39.7374565],[-105.0139195,39.7377044],[-105.0138987,39.7378415],[-105.0138718,39.7380431],[-105.0138594,39.7381766],[-105.0138509,39.7383321],[-105.0138485,39.7384964],[-105.0138504,39.7386981],[-105.0138616,39.7389378],[-105.0138753,39.7392205],[-105.0139122,39.7398617],[-105.0139301,39.7401143],[-105.0139454,39.7402353],[-105.0139568,39.7403204],[-105.0139696,39.7404025],[-105.0139941,39.7405328],[-105.01401,39.7406046],[-105.0140503,39.7407971],[-105.0141085,39.7410044],[-105.0141805,39.7412136],[-105.0142607,39.7414101],[-105.0143642,39.741621],[-105.0144289,39.7417331],[-105.0144575,39.7417792],[-105.0144972,39.7418384],[-105.0145414,39.7419036],[-105.0145815,39.7419581],[-105.014639,39.742035],[-105.0146468,39.7420458],[-105.0147018,39.742118],[-105.0148646,39.7423215],[-105.0149673,39.7424342],[-105.0150857,39.7425606],[-105.0152249,39.742707],[-105.0154061,39.7428914],[-105.0155678,39.7430502],[-105.0157801,39.7432513],[-105.0158901,39.7433599],[-105.0163675,39.7438201],[-105.0164838,39.7439265],[-105.0167041,39.7441353],[-105.0170277,39.7444392],[-105.0171969,39.7446189],[-105.0172858,39.744724],[-105.0174242,39.7448999],[-105.0175383,39.7450617],[-105.0176513,39.7452401],[-105.0177629,39.7454492],[-105.0178588,39.7456603],[-105.017934,39.7458573],[-105.0179965,39.7460342],[-105.0180334,39.746179],[-105.0180702,39.746373],[-105.0180965,39.7465621],[-105.0181175,39.7467951],[-105.0181217,39.7469577],[-105.018115,39.7471433],[-105.0180988,39.7473335],[-105.0180668,39.7475409],[-105.0180493,39.7476301],[-105.018029,39.7477225],[-105.0180034,39.7478185],[-105.0179778,39.7479146],[-105.0179087,39.7481317],[-105.0177792,39.7484763],[-105.0176295,39.7488357],[-105.017433,39.7493151],[-105.017255,39.7497599],[-105.0169114,39.7505856],[-105.0167813,39.7508859],[-105.0166457,39.7511628],[-105.0165104,39.7514294],[-105.0164058,39.7516175],[-105.0162965,39.7518026],[-105.0161854,39.7519742],[-105.0160679,39.7521499],[-105.0159412,39.7523286],[-105.0158147,39.7524998],[-105.0156456,39.7527138],[-105.0154903,39.7528871],[-105.0153252,39.7530601],[-105.0152472,39.753141],[-105.0151575,39.753234],[-105.0150035,39.7533912],[-105.014873,39.7535163],[-105.0146429,39.7537185],[-105.0144083,39.7539087],[-105.014149,39.7541102],[-105.0136561,39.7544665],[-105.013163,39.7548305],[-105.0128952,39.755018],[-105.0126934,39.7551368],[-105.0124085,39.755357],[-105.0121371,39.7555494],[-105.0114614,39.7560656],[-105.01023,39.7569498],[-105.0098823,39.7572069],[-105.0092158,39.7576884],[-105.0084927,39.7582037],[-105.0077701,39.7587328],[-105.0075703,39.7588771],[-105.0073584,39.7590307],[-105.0071545,39.7591699],[-105.0067965,39.7594163],[-105.0064987,39.7596153],[-105.0062305,39.7597885],[-105.0058925,39.7599977],[-105.0048976,39.7606292],[-105.004707,39.7607534],[-105.0041317,39.7611153],[-105.0038822,39.7612874],[-105.0035993,39.761506],[-105.0033925,39.7616821],[-105.0031862,39.7618648],[-105.0029676,39.762072],[-105.0027624,39.7622782],[-105.0025478,39.7625029],[-105.0023158,39.762774],[-105.0021334,39.763008],[-105.0019604,39.7632421],[-105.0016238,39.7637183],[-105.0011705,39.7643616],[-105.0007722,39.7649069],[-105.0006099,39.7651286],[-105.0004678,39.7652976],[-105.0002908,39.7654688],[-105.0001486,39.7655976],[-104.9999944,39.7657254],[-104.999816,39.7658605],[-104.9996135,39.7660007],[-104.9994519,39.7661075],[-104.9992717,39.766214],[-104.9991116,39.7663041],[-104.9989261,39.7663998],[-104.9987231,39.7664953],[-104.998467,39.7666069],[-104.998054,39.766771],[-104.997422,39.7670051],[-104.9969463,39.7672019],[-104.9955552,39.7677501],[-104.9953593,39.767829],[-104.994535,39.7681556],[-104.994061,39.7683587],[-104.9939019,39.7684464],[-104.9937696,39.7685158],[-104.9935728,39.7686205],[-104.9933528,39.7687412],[-104.9930304,39.7689369],[-104.9927349,39.7691275],[-104.9924338,39.7693347],[-104.9921134,39.7695759],[-104.9918661,39.7697817],[-104.9915663,39.7700644],[-104.9913118,39.7703179],[-104.9910815,39.7705695],[-104.9906932,39.7710623],[-104.9900732,39.7720471],[-104.9899538,39.7722886],[-104.989869,39.7724886],[-104.9897817,39.7727042],[-104.9897704,39.7727332],[-104.9896232,39.7731413],[-104.9895742,39.7732981],[-104.9895215,39.773473],[-104.9894198,39.7738621],[-104.9893754,39.7740642],[-104.9893341,39.7742792],[-104.9893092,39.7744485],[-104.989283,39.774644],[-104.989265,39.7748078],[-104.98925,39.7749902],[-104.989241,39.7751507],[-104.9892313,39.7753776],[-104.9892249,39.7759085],[-104.989226,39.7762624],[-104.9892244,39.7764813],[-104.9891955,39.7805428],[-104.9891808,39.7815229],[-104.9891792,39.7837087],[-104.9891831,39.7842835],[-104.9890853,39.7875506],[-104.9890746,39.7877515],[-104.9890584,39.7880446],[-104.9889639,39.788703],[-104.9888923,39.7890726],[-104.9887259,39.7897859],[-104.9877493,39.7939054],[-104.987459,39.79513],[-104.9873009,39.795763],[-104.9872243,39.7960397],[-104.9871556,39.796256],[-104.987111,39.7963902],[-104.9870729,39.7964969],[-104.9870268,39.7966174],[-104.9869739,39.7967566],[-104.9868981,39.7969464],[-104.9868495,39.7970628],[-104.986815,39.7971436],[-104.986752,39.7972871],[-104.9867091,39.7973814],[-104.9866229,39.7975654],[-104.9865646,39.7976859],[-104.9863712,39.7980686],[-104.9860945,39.7985984],[-104.985761,39.7992325],[-104.9856541,39.7994439],[-104.984949,39.8008626],[-104.98458,39.8015681],[-104.9843055,39.8020905],[-104.9838103,39.8030023],[-104.9836881,39.8032413],[-104.9836332,39.8033646],[-104.9835462,39.8035523],[-104.9834817,39.803719],[-104.9834185,39.8038858],[-104.9833488,39.8040653],[-104.9832774,39.8042879],[-104.9832267,39.8044419],[-104.9831385,39.8047249],[-104.9830446,39.8051971],[-104.9830103,39.805442],[-104.9829828,39.8055865],[-104.9829632,39.8056947],[-104.9829484,39.8057972],[-104.9829346,39.8059032],[-104.9829228,39.8060055],[-104.9829052,39.8061751],[-104.9828934,39.8063087],[-104.9828874,39.8063954],[-104.9828797,39.806551],[-104.9828742,39.8067027],[-104.9828714,39.8068455],[-104.9828711,39.8068841],[-104.9828696,39.8070405],[-104.9828629,39.8077138],[-104.9828607,39.8082938],[-104.9828436,39.8089103],[-104.9828299,39.8094314],[-104.9828191,39.8100893],[-104.982823,39.8108588],[-104.9827993,39.8120402],[-104.982783,39.812999],[-104.9827782,39.8143559],[-104.982765,39.8147371],[-104.9827545,39.8150306],[-104.9827398,39.8154629],[-104.9827213,39.8162775],[-104.9827094,39.8166581],[-104.9826722,39.8175964],[-104.9826506,39.8181358],[-104.9826133,39.8196015],[-104.9825981,39.8199826],[-104.9825892,39.820272],[-104.9825783,39.8204934],[-104.9825712,39.820714],[-104.982547,39.8215697],[-104.9825095,39.8218278],[-104.9824759,39.822056],[-104.9824389,39.8222833],[-104.9824058,39.8224822],[-104.9823771,39.8226499],[-104.9823464,39.8228187],[-104.982299,39.8230318],[-104.9822555,39.8232128],[-104.9822172,39.8233581],[-104.9821649,39.8235422],[-104.9821575,39.8235689],[-104.9820783,39.823827],[-104.9820712,39.8238525],[-104.981984,39.8241127],[-104.9819132,39.8243241],[-104.9816093,39.8252318],[-104.9815182,39.8255102],[-104.981465,39.8256873],[-104.9814192,39.8258693],[-104.9813692,39.826095],[-104.9813287,39.8263114],[-104.9812982,39.8265098],[-104.9812718,39.8267488],[-104.9812536,39.8269685],[-104.9812445,39.8271589],[-104.9812424,39.8272933],[-104.9812442,39.8274653],[-104.98125,39.8276178],[-104.9812617,39.8278187],[-104.9812785,39.8279986],[-104.9813043,39.8282019],[-104.9813326,39.8283735],[-104.9813625,39.8285341],[-104.981395,39.828691],[-104.9814346,39.8288473],[-104.9814567,39.8289372],[-104.9814839,39.82904],[-104.9815041,39.8291091],[-104.9815451,39.8292407],[-104.9815797,39.8293432],[-104.9816464,39.8295305],[-104.9816806,39.8296251],[-104.9817268,39.829748],[-104.9817578,39.8298274],[-104.9817977,39.8299236],[-104.9819549,39.8302909],[-104.9821233,39.8306829],[-104.9822014,39.8308751],[-104.9822823,39.831061],[-104.9824852,39.8315127],[-104.9825755,39.8317109],[-104.9826362,39.8318598],[-104.9826846,39.8319787],[-104.9827591,39.8321749],[-104.9828779,39.8325153],[-104.9829939,39.8328959],[-104.9830558,39.8331307],[-104.9831264,39.8334347],[-104.9831647,39.8336398],[-104.983191,39.8338003],[-104.9832127,39.8339632],[-104.9832376,39.8341663],[-104.9832526,39.8343225],[-104.9832638,39.8344453],[-104.9832794,39.8346247],[-104.9833417,39.8354646],[-104.9833854,39.8360393],[-104.9834441,39.8367963],[-104.9834733,39.8372468],[-104.9835209,39.8379309],[-104.9835498,39.8383642],[-104.9835828,39.8387804],[-104.9836259,39.8394255],[-104.9836681,39.8400593],[-104.9836923,39.8403687],[-104.9837149,39.8406118],[-104.9837495,39.8408871],[-104.9837853,39.8411295],[-104.9838299,39.8413912],[-104.9838626,39.841583],[-104.9838947,39.8417553],[-104.9841385,39.8428923],[-104.9841989,39.8431729],[-104.9842641,39.843463],[-104.9842879,39.8435828],[-104.9843225,39.8437285],[-104.9844359,39.84427],[-104.9845355,39.8447208],[-104.9846903,39.845452],[-104.984707,39.845536],[-104.985119,39.847435],[-104.9852916,39.8482247],[-104.9855838,39.8495801],[-104.9856631,39.8499385],[-104.985869,39.850889],[-104.98596,39.851327],[-104.9861123,39.8519492],[-104.9863877,39.8532977],[-104.9864456,39.8535675],[-104.986624,39.85439],[-104.9867653,39.8550588],[-104.9868984,39.8556694],[-104.9870534,39.8562446],[-104.9871972,39.857052],[-104.9872188,39.8571557],[-104.9872431,39.8572778],[-104.9872692,39.8574157],[-104.9873065,39.8576118],[-104.9873342,39.8577949],[-104.9873614,39.8579899],[-104.9873777,39.8581233],[-104.9873907,39.8582378],[-104.9874005,39.8583346],[-104.9874132,39.8584658],[-104.987428,39.8586236],[-104.9874408,39.858813],[-104.987453,39.858988],[-104.9874583,39.8591257],[-104.9874604,39.859245],[-104.987464,39.8593499],[-104.987466,39.8594352],[-104.9874675,39.8595475],[-104.9874673,39.8597085],[-104.9874654,39.8599716],[-104.9874636,39.860179],[-104.9874642,39.8605048],[-104.9874643,39.8608337],[-104.9874624,39.8613279],[-104.9874643,39.8616121],[-104.9874638,39.8618321],[-104.9874629,39.8619846],[-104.9874603,39.8622583],[-104.9874482,39.8626352],[-104.9874494,39.8634649],[-104.9874503,39.8641381],[-104.9874466,39.8650555],[-104.9874462,39.8657491],[-104.9874463,39.8663195],[-104.9874483,39.8670909],[-104.9874446,39.8675536],[-104.9874518,39.8679561],[-104.9874417,39.8711122],[-104.9874413,39.8713068],[-104.9874421,39.8716579],[-104.9874368,39.872819],[-104.9874371,39.8735032],[-104.9874368,39.8739956],[-104.9874355,39.8744254],[-104.9874361,39.8754134],[-104.987436,39.87828],[-104.987436,39.879493],[-104.9874368,39.8797611],[-104.9874372,39.8798797],[-104.9874354,39.8805792],[-104.9874155,39.8816289],[-104.9874121,39.8824616],[-104.987417,39.8826347],[-104.9874343,39.882958],[-104.9874305,39.8836562],[-104.9874303,39.8842197],[-104.9874338,39.885028],[-104.987429,39.8869493],[-104.9874307,39.8877291],[-104.9874316,39.8884105],[-104.9874295,39.8890323],[-104.9874394,39.8899422],[-104.9874386,39.8908158],[-104.987441,39.8914002],[-104.9874437,39.8922996],[-104.9874434,39.8929592],[-104.9874445,39.8935003],[-104.9874504,39.8948997],[-104.9874533,39.8958362],[-104.9874605,39.8962879],[-104.9874566,39.8967459],[-104.9874918,39.89767],[-104.9875562,39.8984027],[-104.9875766,39.8985476],[-104.9875995,39.8986967],[-104.987639,39.898931],[-104.9876522,39.8990156],[-104.9876723,39.8991303],[-104.987694,39.8992485],[-104.9877067,39.8993135],[-104.9877392,39.8994624],[-104.9877748,39.8996202],[-104.9877987,39.8997217],[-104.9878272,39.8998385],[-104.9878566,39.8999533],[-104.987906,39.9001368],[-104.9879436,39.9002686],[-104.9880079,39.9004819],[-104.9880757,39.9006957],[-104.9881446,39.9009026],[-104.9881953,39.9010506],[-104.988239,39.901172],[-104.9882708,39.9012564],[-104.9883023,39.9013343],[-104.9883468,39.9014402],[-104.9883701,39.9014941],[-104.9884583,39.9016842],[-104.9885845,39.9019414],[-104.9886908,39.9021594],[-104.9887893,39.9023551],[-104.9889008,39.9025849],[-104.9891323,39.9030678],[-104.9894322,39.9036742],[-104.9895688,39.9040381],[-104.9896348,39.9042024],[-104.9896794,39.9043168],[-104.9897611,39.9045349],[-104.9898331,39.904752],[-104.9899284,39.9050303],[-104.9899701,39.9051946],[-104.9900189,39.9053552],[-104.99008,39.9055318],[-104.9901227,39.9057116],[-104.9901849,39.9059796],[-104.9902477,39.9062451],[-104.9903324,39.9066439],[-104.9904221,39.9071421],[-104.9904738,39.9074731],[-104.9905025,39.9076987],[-104.9905185,39.9079465],[-104.9905414,39.9082227],[-104.9905429,39.908367],[-104.9905433,39.9091437],[-104.990543,39.909407],[-104.9905377,39.9097276],[-104.9905392,39.9100486],[-104.9905214,39.9103222],[-104.9905041,39.9105321],[-104.9904779,39.910868],[-104.9904241,39.9112731],[-104.990353,39.9116315],[-104.9902571,39.9121422],[-104.9901923,39.9124661],[-104.9901575,39.9125954],[-104.990115,39.912742],[-104.9900607,39.9129197],[-104.9899977,39.9131195],[-104.9899141,39.913348],[-104.989864,39.91347],[-104.98977,39.9137051],[-104.989682,39.913917],[-104.989613,39.914065],[-104.9895373,39.9142495],[-104.988571,39.916414],[-104.9883988,39.9167882],[-104.9882084,39.9172862],[-104.9880974,39.9176361],[-104.9878503,39.9185606],[-104.9877087,39.9192987],[-104.9876719,39.9195642],[-104.9876428,39.9200137],[-104.9876043,39.9205178],[-104.987603,39.920912],[-104.987596,39.921319],[-104.9875705,39.9236052],[-104.9875531,39.9251672],[-104.9875606,39.9274627],[-104.9875703,39.9288436],[-104.9875948,39.9312103],[-104.9876321,39.9341831],[-104.9876461,39.935347],[-104.9876749,39.937128],[-104.9876784,39.9374265],[-104.9877134,39.9386079],[-104.9877268,39.9425963],[-104.9877482,39.9447956],[-104.9877681,39.9460153],[-104.9878039,39.9477901],[-104.9877878,39.949785],[-104.9878451,39.9515028],[-104.9878333,39.95347],[-104.9878459,39.9542165],[-104.9878537,39.9548513],[-104.98786,39.9555004],[-104.9878772,39.9572747],[-104.9878832,39.9604072],[-104.9879323,39.9615994],[-104.9879464,39.9632819],[-104.9879526,39.9634925],[-104.9879614,39.9649988],[-104.9879112,39.966922],[-104.9879123,39.9672876],[-104.987915,39.9681376],[-104.9879168,39.9684847],[-104.9879404,39.9719819],[-104.9879416,39.9742333],[-104.9879666,39.9757587],[-104.9879753,39.9762905],[-104.9879998,39.97753],[-104.9880082,39.9796231],[-104.9879988,39.9811815],[-104.9879996,39.982115],[-104.9880162,39.9833255],[-104.9880162,39.9834965],[-104.9880143,39.9836437],[-104.9880122,39.9838948],[-104.9880084,39.9839832],[-104.987999,39.9843383],[-104.9879304,39.984996],[-104.9878188,39.9857654],[-104.9876717,39.9864295],[-104.9875466,39.9868601],[-104.9874004,39.9873191],[-104.9872676,39.9876968],[-104.9871795,39.9879312],[-104.9870361,39.988277],[-104.986864,39.988678],[-104.986607,39.989206],[-104.9858558,39.9905895],[-104.984819,39.992499],[-104.984589,39.992917],[-104.983485,39.994925],[-104.983161,39.995543],[-104.9827821,39.9962631],[-104.982479,39.9968207],[-104.9821916,39.9973339],[-104.9816913,39.9982622],[-104.9815122,39.9985901],[-104.9812901,39.9990061],[-104.981116,39.999355],[-104.9809993,39.9996359],[-104.9808432,40.0000419],[-104.9807454,40.0003183],[-104.9805661,40.0009552],[-104.980506,40.0013431],[-104.9804413,40.0021605],[-104.9804282,40.0032508],[-104.9804304,40.0041919],[-104.9804337,40.0050406],[-104.9804459,40.0055049],[-104.9804459,40.0057481],[-104.9804818,40.0075088],[-104.98049,40.007909],[-104.9804901,40.0083321],[-104.9804901,40.0090234],[-104.9804906,40.0146732],[-104.9804751,40.0185615],[-104.9804212,40.0227146],[-104.9804339,40.0253718],[-104.9804385,40.0291808],[-104.9804423,40.0296391],[-104.9803773,40.0328624],[-104.980379,40.0375017],[-104.9803694,40.0386283],[-104.98036,40.0397296],[-104.9803258,40.0483176],[-104.9803145,40.0503802],[-104.9802713,40.0582416],[-104.98027,40.0586125],[-104.9802694,40.0628723],[-104.9802657,40.0654444],[-104.9802657,40.0663968],[-104.9803086,40.0697467],[-104.9802829,40.0739372],[-104.9802485,40.0775823],[-104.9802445,40.0811523],[-104.9802376,40.0815642],[-104.9802207,40.0825734],[-104.9802056,40.0889103],[-104.980197,40.0907555],[-104.9801541,40.0921475],[-104.9801721,40.0944772],[-104.9801641,40.0980285],[-104.9802205,40.1022753],[-104.9801998,40.1059917],[-104.9802151,40.1082652],[-104.9802095,40.1101038],[-104.9801584,40.112063],[-104.9799721,40.1145484],[-104.9798133,40.116141],[-104.9797476,40.1169343],[-104.979728,40.1186272],[-104.9797284,40.1196043],[-104.9797287,40.1202565],[-104.9797291,40.121247],[-104.9797278,40.1227793],[-104.9797275,40.1231077],[-104.9800295,40.1262935],[-104.9801483,40.1275063],[-104.9801438,40.1286369],[-104.9801247,40.1312523],[-104.9801051,40.1317147],[-104.9801542,40.1341353],[-104.9801145,40.1390926],[-104.9800695,40.145163],[-104.9800388,40.1457444],[-104.9800249,40.1462942],[-104.9799344,40.1471043],[-104.9798771,40.1477101],[-104.979582,40.149532],[-104.9794351,40.1505106],[-104.979112,40.15253],[-104.97899,40.153229],[-104.9789009,40.1539679],[-104.9788764,40.1541711],[-104.9788054,40.1548655],[-104.9787637,40.1555707],[-104.9787462,40.156183],[-104.9787344,40.1568167],[-104.978711,40.157162],[-104.978711,40.157925],[-104.978698,40.159272],[-104.978754,40.160233],[-104.9787821,40.1609865],[-104.9788103,40.1617501],[-104.978888,40.162521],[-104.979004,40.163625],[-104.979049,40.164176],[-104.979369,40.16718],[-104.9795849,40.1697674],[-104.979606,40.1704155],[-104.9795995,40.1710189],[-104.9796145,40.1721826],[-104.9795823,40.1737786],[-104.9795535,40.1746005],[-104.9795346,40.1755824],[-104.9795637,40.1776397],[-104.9796232,40.178692],[-104.9798742,40.1818335],[-104.9800087,40.185004],[-104.980024,40.1894776],[-104.9800233,40.1899271],[-104.9799806,40.1926146],[-104.979956,40.1962276],[-104.9799528,40.1967026],[-104.9799322,40.1979957],[-104.979914,40.1990932],[-104.9799053,40.2016851],[-104.9799093,40.2029491],[-104.979903,40.203978],[-104.9799004,40.2044135],[-104.9799348,40.2093022],[-104.9799204,40.2113387],[-104.9799253,40.2118656],[-104.9799185,40.2122782],[-104.9798951,40.2137037],[-104.9799009,40.2137333],[-104.9801414,40.2149664],[-104.9801624,40.2168597],[-104.9801765,40.2188085],[-104.9801671,40.2191628],[-104.9801863,40.220215],[-104.9802406,40.2261368],[-104.9802513,40.227148],[-104.9802565,40.2287644],[-104.9802477,40.2290074],[-104.9802856,40.2308783],[-104.9802794,40.2316989],[-104.980286,40.2324132],[-104.9802857,40.2333647],[-104.980295,40.2335271],[-104.9802977,40.2337954],[-104.9803147,40.2350544],[-104.9803343,40.236321],[-104.9803247,40.237943],[-104.9803296,40.2421783],[-104.9803288,40.2425216],[-104.9803571,40.2441994],[-104.9803867,40.2480071],[-104.9804011,40.2489327],[-104.9803923,40.2545164],[-104.9804453,40.2597992],[-104.980453,40.2602976],[-104.9804507,40.2610279],[-104.9804644,40.2619681],[-104.9804657,40.2624507],[-104.9804594,40.2648562],[-104.9804519,40.2667723],[-104.9804253,40.2699219],[-104.980352,40.2769408],[-104.9803504,40.279058],[-104.9803356,40.2823091],[-104.9803263,40.2849129],[-104.9803087,40.2908127],[-104.9803287,40.2931875],[-104.9803301,40.2935745],[-104.9803687,40.2984862],[-104.980195,40.2994912],[-104.9800935,40.3000649],[-104.9800387,40.300401],[-104.9800003,40.30081],[-104.9800111,40.3012986],[-104.9800322,40.3018878],[-104.9800236,40.3021364],[-104.9800394,40.303204],[-104.9800427,40.3046958],[-104.9800522,40.3060935],[-104.9800488,40.3065696],[-104.9800465,40.3071903],[-104.9800334,40.3077921],[-104.9800299,40.3083342],[-104.9800468,40.3087024],[-104.9800371,40.3103363],[-104.9800131,40.3110856],[-104.980034,40.3116353],[-104.9800388,40.3123932],[-104.9800359,40.3128824],[-104.9800528,40.3152518],[-104.9800439,40.3171211],[-104.9800634,40.320721],[-104.9800608,40.3210431],[-104.9800648,40.3247083],[-104.9800576,40.3258012],[-104.9800531,40.3265643],[-104.9800699,40.3280339],[-104.9800807,40.3283678],[-104.9800498,40.3296965],[-104.9800567,40.3304924],[-104.980091,40.3327892],[-104.9800843,40.3339076],[-104.9800808,40.3354717],[-104.980087,40.3375264],[-104.9800719,40.3397549],[-104.9800693,40.3407995],[-104.9801196,40.3423493],[-104.9801694,40.3430301],[-104.9802108,40.3434541],[-104.9805479,40.3460125],[-104.9809718,40.3489822],[-104.9810139,40.3493906],[-104.9810914,40.3500247],[-104.9811404,40.3504027],[-104.9812049,40.3509388],[-104.9812606,40.3513792],[-104.9813126,40.3517799],[-104.9814009,40.3523827],[-104.981474,40.353157],[-104.9816636,40.354391],[-104.981931,40.355619],[-104.9822357,40.3567194],[-104.9823122,40.3569899],[-104.9825356,40.3576314],[-104.9829761,40.3586373],[-104.9844359,40.3616049],[-104.9853612,40.3635127],[-104.9855282,40.3638635],[-104.9860639,40.3648636],[-104.98666,40.3660643],[-104.9871038,40.3669095],[-104.9879867,40.3684814],[-104.9885637,40.369567],[-104.9892077,40.3706718],[-104.9910664,40.3739507],[-104.9920235,40.3761402],[-104.9924719,40.3774587],[-104.9927498,40.378531],[-104.9929805,40.379513],[-104.9931879,40.3811781],[-104.9932545,40.3828785],[-104.9932274,40.3884491],[-104.9932296,40.3886453],[-104.993179,40.392196],[-104.9931585,40.3939892],[-104.993153,40.395211],[-104.9931319,40.3969076],[-104.9931325,40.3976632],[-104.9931608,40.3981401],[-104.993173,40.3987288],[-104.9932007,40.3997735],[-104.9932279,40.4017013],[-104.9932217,40.4023151],[-104.993203,40.4026641],[-104.9931607,40.4032857],[-104.9930914,40.4040972],[-104.9929626,40.4063345],[-104.9929278,40.406935],[-104.9929164,40.4071004],[-104.9928764,40.4078315],[-104.9928491,40.4087123],[-104.9927955,40.4099278],[-104.992669,40.4126212],[-104.9926487,40.4137821],[-104.992622,40.4145465],[-104.992615,40.4147966],[-104.9925816,40.4151759],[-104.9925629,40.4159548],[-104.9925435,40.416993],[-104.9925326,40.4178794],[-104.9925247,40.4181712],[-104.9925034,40.4189523],[-104.9924837,40.4206343],[-104.9924539,40.4218137],[-104.9924481,40.4223666],[-104.9924476,40.4224145],[-104.9924328,40.4231468],[-104.9923843,40.4250879],[-104.9923653,40.4261221],[-104.9923379,40.4270711],[-104.9923166,40.4285249],[-104.9923083,40.4290294],[-104.9922747,40.4299114],[-104.9922552,40.4306623],[-104.9922429,40.4313588],[-104.9921694,40.4357339],[-104.9921488,40.4362425],[-104.9920743,40.4410785],[-104.9918544,40.4486957],[-104.9915844,40.4758111],[-104.991504,40.4772843],[-104.9914538,40.4792402],[-104.9915959,40.4837492],[-104.9915767,40.4866731],[-104.9915103,40.4907932],[-104.9914845,40.4935097],[-104.9914579,40.4975793],[-104.9914273,40.5013],[-104.9914081,40.5035393],[-104.9914091,40.504645],[-104.9914057,40.5051814],[-104.9913931,40.5080005],[-104.9914013,40.5086941],[-104.991466,40.5099471],[-104.9916153,40.5121741],[-104.9917878,40.5152692],[-104.9918795,40.5169607],[-104.9919626,40.5185379],[-104.9919998,40.5194371],[-104.9921397,40.5221513],[-104.9922243,40.5236646],[-104.9923384,40.5266184],[-104.9923759,40.5274261],[-104.9924279,40.5279716],[-104.992682,40.529795],[-104.9928467,40.5305304],[-104.9931382,40.5315172],[-104.9932445,40.531859],[-104.9942753,40.5351944],[-104.9946647,40.536567],[-104.9952536,40.5386848],[-104.9954934,40.5395092],[-104.9960595,40.5413044],[-104.997656,40.5466424],[-104.998998,40.5507478],[-105.0000767,40.5542955],[-105.0002829,40.5549474],[-105.0004026,40.5554026],[-105.0007149,40.5566419],[-105.0008476,40.5573167],[-105.000941,40.5578926],[-105.0009593,40.5580646],[-105.0010408,40.5585785],[-105.0012174,40.5600487],[-105.001292,40.5610728],[-105.0013008,40.5611243],[-105.0013032,40.5656418],[-105.0010797,40.5690497],[-105.0010074,40.570989],[-105.0010341,40.5726932],[-105.0011017,40.5743951],[-105.0011342,40.5753095],[-105.0011593,40.5760756],[-105.0011481,40.5781156],[-105.0011627,40.5805265],[-105.0011503,40.5813367],[-105.0011348,40.5847086],[-105.001131,40.58633],[-105.0011626,40.5882671],[-105.0011607,40.5886304]]}},{"type":"Feature","properties":{"corridor":"I25","direction":"SOUTHBOUND","geometryVersion":1,"source":"OpenStreetMap","sourceRelationId":2333677,"sourceRelationVersion":261,"sourceTimestamp":"2026-04-30T20:54:01Z","monitoredMileStart":208.0,"monitoredMileEnd":271.0},"geometry":{"type":"LineString","coordinates":[[-105.0014638,40.589034],[-105.0014656,40.588624],[-105.0014618,40.5882589],[-105.001442,40.585905],[-105.0014442,40.5847032],[-105.0014621,40.5813252],[-105.0014695,40.5809123],[-105.0015243,40.5781232],[-105.0014668,40.5765598],[-105.001461,40.5753331],[-105.0014434,40.5743889],[-105.0014387,40.5727333],[-105.001399,40.5717643],[-105.0013986,40.5711175],[-105.0014694,40.5690476],[-105.0016553,40.5656513],[-105.0017987,40.5630456],[-105.0017713,40.5622847],[-105.0017374,40.5613774],[-105.0016754,40.5603628],[-105.0015426,40.5592215],[-105.0013615,40.5577436],[-105.0011641,40.5567418],[-105.0009487,40.5558471],[-105.000581,40.5544477],[-105.0000697,40.552698],[-104.9999429,40.5522712],[-104.9992159,40.5498246],[-104.9988772,40.5487323],[-104.9985278,40.5477509],[-104.997484,40.5448388],[-104.9964689,40.5412365],[-104.9960456,40.5396656],[-104.995909,40.539207],[-104.9954143,40.5376889],[-104.9943746,40.53408],[-104.9937282,40.5321493],[-104.9935451,40.5316035],[-104.9932042,40.5305579],[-104.9930625,40.5299996],[-104.9929976,40.5296615],[-104.99291,40.5290962],[-104.992854,40.5284897],[-104.9928086,40.5279144],[-104.9927611,40.527214],[-104.9927584,40.5266686],[-104.9927227,40.526441],[-104.9925366,40.5236909],[-104.992464,40.5221574],[-104.9923827,40.5204807],[-104.9923499,40.5196212],[-104.9922421,40.5169514],[-104.9921805,40.5157838],[-104.9920126,40.5122068],[-104.9919018,40.5099151],[-104.9918326,40.5087083],[-104.9918306,40.5080245],[-104.991862,40.504891],[-104.9918702,40.5035678],[-104.991848,40.5013],[-104.991887,40.4975802],[-104.991929,40.493596],[-104.9919346,40.490813],[-104.9919757,40.4848126],[-104.9919578,40.4827459],[-104.991813,40.4794225],[-104.9918559,40.4778149],[-104.9919511,40.4763918],[-104.992084,40.469488],[-104.9921043,40.4642145],[-104.992166,40.45764],[-104.9921819,40.4503229],[-104.9924698,40.4409425],[-104.9925092,40.4362482],[-104.9925228,40.4357401],[-104.9927035,40.4315167],[-104.9926904,40.4309379],[-104.9926872,40.4296865],[-104.9926899,40.4290927],[-104.9927064,40.4283241],[-104.9927605,40.4269071],[-104.9927909,40.4264186],[-104.9928727,40.4252482],[-104.9929146,40.4243567],[-104.9929179,40.4234809],[-104.9929249,40.422726],[-104.9929698,40.4217739],[-104.9929668,40.4207906],[-104.9930208,40.4189072],[-104.9930131,40.4177038],[-104.993008,40.4168937],[-104.9929976,40.4152601],[-104.9930091,40.4136402],[-104.9931004,40.4122514],[-104.9931163,40.4116358],[-104.9931085,40.4109416],[-104.9931937,40.4096026],[-104.9932679,40.408277],[-104.993394,40.4060699],[-104.9934265,40.4056541],[-104.9934359,40.4051752],[-104.99346,40.4043916],[-104.9936497,40.4006398],[-104.9936221,40.4001538],[-104.9935872,40.3991704],[-104.9935426,40.3976939],[-104.9935028,40.3968079],[-104.993495,40.3949804],[-104.9935205,40.3937598],[-104.9935251,40.3924261],[-104.9935622,40.390794],[-104.993567,40.3895191],[-104.9935727,40.3886457],[-104.9935725,40.3884503],[-104.9935649,40.3871854],[-104.9935964,40.3852745],[-104.9935958,40.3846976],[-104.9936048,40.3842824],[-104.9936251,40.3835619],[-104.9936535,40.38289],[-104.993567,40.3815062],[-104.9935325,40.3810043],[-104.9934264,40.3798808],[-104.993352,40.3793921],[-104.9931619,40.3784636],[-104.9929538,40.3776274],[-104.9928435,40.3772668],[-104.9926853,40.3767517],[-104.9924084,40.3760048],[-104.9919979,40.3750145],[-104.9906526,40.3724337],[-104.9896151,40.3706427],[-104.9889597,40.3694639],[-104.9884552,40.3685544],[-104.9878436,40.367528],[-104.9865541,40.3650322],[-104.9859544,40.3638367],[-104.9857868,40.3634871],[-104.984881,40.3614453],[-104.9847617,40.361196],[-104.98454,40.3607388],[-104.9840097,40.3596448],[-104.983384,40.358353],[-104.9829318,40.3573369],[-104.982704,40.356673],[-104.9825119,40.3560234],[-104.9823129,40.3552736],[-104.9821782,40.3546081],[-104.9820666,40.3540095],[-104.9819568,40.3533127],[-104.9818198,40.352368],[-104.9815757,40.3505575],[-104.9814218,40.3493816],[-104.9813879,40.3489839],[-104.9808484,40.3449061],[-104.980712,40.3438589],[-104.9806402,40.3433795],[-104.9806023,40.3430442],[-104.9805871,40.3429336],[-104.9805774,40.3428408],[-104.9805677,40.3426524],[-104.980547,40.3421655],[-104.9805393,40.3407944],[-104.9805344,40.340664],[-104.9805312,40.3392963],[-104.9805194,40.3382474],[-104.9805234,40.3354691],[-104.9805326,40.3339623],[-104.9805086,40.3316074],[-104.9804906,40.3283623],[-104.9804933,40.3280293],[-104.9804539,40.3210304],[-104.9804473,40.3207385],[-104.9804232,40.3170944],[-104.980422,40.3152515],[-104.9804247,40.3133929],[-104.9804281,40.312812],[-104.9804249,40.3124154],[-104.9804757,40.3117164],[-104.9805077,40.3112896],[-104.9805567,40.3108532],[-104.9805934,40.3105356],[-104.9806113,40.3102108],[-104.9806382,40.3084957],[-104.9806566,40.3078507],[-104.9806257,40.3073722],[-104.9806209,40.3070754],[-104.9805776,40.306571],[-104.980571,40.3060893],[-104.9805405,40.3049963],[-104.9805597,40.3042227],[-104.980503,40.3033842],[-104.9805083,40.3030464],[-104.9805679,40.302774],[-104.9805669,40.3025688],[-104.9805567,40.3023143],[-104.9805742,40.3016895],[-104.9805679,40.3013963],[-104.9805615,40.3007598],[-104.9805276,40.2994517],[-104.9805214,40.2991888],[-104.9805077,40.298609],[-104.9804432,40.2935615],[-104.9804384,40.2931918],[-104.9804323,40.2908542],[-104.9804161,40.2890689],[-104.9804413,40.285951],[-104.9804374,40.2849516],[-104.9804627,40.2769656],[-104.9805275,40.2699556],[-104.9805622,40.2667666],[-104.9805814,40.2624703],[-104.9805646,40.2598046],[-104.980521,40.2544985],[-104.9805125,40.2489542],[-104.9804876,40.2469173],[-104.980474,40.2442161],[-104.9804618,40.2424966],[-104.9804709,40.2421612],[-104.9804431,40.2379844],[-104.9805229,40.2366488],[-104.9804322,40.2361172],[-104.9804367,40.2354437],[-104.9803831,40.2335501],[-104.9803972,40.230686],[-104.9803958,40.2305616],[-104.9803751,40.2287683],[-104.9803757,40.2271274],[-104.9803586,40.2261446],[-104.980314,40.2202242],[-104.9803014,40.2191742],[-104.9803137,40.2188233],[-104.9802899,40.2163462],[-104.9803367,40.2145996],[-104.9803829,40.2123995],[-104.9803818,40.2118378],[-104.9803676,40.2094925],[-104.9803243,40.2066815],[-104.9803338,40.2044376],[-104.9803357,40.2039781],[-104.9803419,40.2025103],[-104.9803845,40.1988438],[-104.9803765,40.1966842],[-104.9803767,40.1963323],[-104.9803784,40.1926063],[-104.9804511,40.1899226],[-104.9804567,40.189463],[-104.9804456,40.1849889],[-104.9803762,40.183277],[-104.9802575,40.1818475],[-104.9800017,40.1786909],[-104.9799509,40.177545],[-104.9799725,40.1755709],[-104.9799671,40.1746017],[-104.9800674,40.1714882],[-104.9800846,40.1704858],[-104.9800715,40.1698095],[-104.9800377,40.1692716],[-104.979929,40.1683057],[-104.9798271,40.1671001],[-104.9796996,40.1659228],[-104.9796316,40.1652945],[-104.9794996,40.1640868],[-104.9793988,40.1631308],[-104.9793183,40.1623478],[-104.9792255,40.1615346],[-104.9791839,40.1609742],[-104.9791587,40.1602244],[-104.9791349,40.1595238],[-104.979171,40.1560458],[-104.9791929,40.1556158],[-104.9792469,40.1549228],[-104.9793039,40.1543338],[-104.9793239,40.1542198],[-104.9794605,40.1531868],[-104.9794913,40.1530037],[-104.9796265,40.1520311],[-104.9798536,40.1505618],[-104.9798973,40.1502793],[-104.9800255,40.1494865],[-104.9800994,40.1488031],[-104.9802399,40.1479868],[-104.9802909,40.1476186],[-104.9803513,40.147001],[-104.9804308,40.1463849],[-104.9804586,40.1458193],[-104.9804957,40.145081],[-104.9805488,40.1392458],[-104.9805453,40.1369233],[-104.9805469,40.1341251],[-104.9805308,40.1316932],[-104.9805423,40.1312461],[-104.9805681,40.1290376],[-104.9805426,40.1274952],[-104.9803924,40.1257846],[-104.9801802,40.1232531],[-104.9801357,40.1211545],[-104.9801692,40.1187418],[-104.9801708,40.1168876],[-104.9802387,40.1161453],[-104.9803886,40.114533],[-104.9805729,40.1120446],[-104.9806437,40.1099851],[-104.9806241,40.1082065],[-104.9806263,40.105986],[-104.9806193,40.1022712],[-104.9806092,40.0980465],[-104.9806375,40.0942113],[-104.9806266,40.0922486],[-104.9806691,40.0871373],[-104.9806605,40.0857124],[-104.9806741,40.0820814],[-104.9806863,40.0800779],[-104.9807378,40.0724791],[-104.9807034,40.0651685],[-104.9807206,40.0635],[-104.9807162,40.0628754],[-104.9807021,40.0586167],[-104.9807012,40.0582397],[-104.98077,40.0492858],[-104.98078,40.0481468],[-104.9807722,40.040131],[-104.9807978,40.0375282],[-104.9808037,40.03289],[-104.980861,40.0296571],[-104.9808598,40.0291607],[-104.9808351,40.0253749],[-104.9808774,40.0227211],[-104.9809081,40.0146869],[-104.980919,40.0091785],[-104.9809223,40.0075129],[-104.9809058,40.0067677],[-104.9808857,40.0058545],[-104.9808851,40.0058291],[-104.9808493,40.0043477],[-104.9808493,40.0033681],[-104.9808322,40.0028684],[-104.9808309,40.0022238],[-104.9808249,40.0016545],[-104.9808474,40.0014133],[-104.980902,40.001014],[-104.98098,40.000572],[-104.981051,40.000327],[-104.981167,39.999935],[-104.98124,39.999711],[-104.981379,39.999378],[-104.981556,39.999001],[-104.981776,39.99858],[-104.981867,39.998404],[-104.98195,39.998244],[-104.982234,39.997755],[-104.982289,39.997647],[-104.982491,39.997288],[-104.982714,39.996891],[-104.98363,39.995139],[-104.984714,39.993167],[-104.984852,39.992913],[-104.9853577,39.9919828],[-104.986831,39.989273],[-104.987122,39.98867],[-104.987226,39.9884617],[-104.9875,39.987745],[-104.9877514,39.9869522],[-104.9879304,39.9863507],[-104.988049,39.985448],[-104.988122,39.984969],[-104.988144,39.984768],[-104.988188,39.984291],[-104.988191,39.984197],[-104.9882008,39.9839437],[-104.988207,39.983783],[-104.98825,39.9823754],[-104.9882565,39.9821615],[-104.9882479,39.9812407],[-104.9882175,39.9775525],[-104.988241,39.975514],[-104.9882483,39.9743198],[-104.9882405,39.9724932],[-104.9882397,39.9716278],[-104.9882313,39.9684588],[-104.9882304,39.9681393],[-104.9882292,39.9669216],[-104.9882148,39.9646513],[-104.9882132,39.9639377],[-104.9882288,39.9633238],[-104.9882041,39.9618969],[-104.9882035,39.9612893],[-104.9881861,39.9572245],[-104.9881611,39.9542106],[-104.9881496,39.9534051],[-104.9881576,39.9515271],[-104.9881342,39.9502164],[-104.9881257,39.9468857],[-104.9881129,39.9466413],[-104.9880672,39.945428],[-104.9880459,39.9425662],[-104.9880249,39.9407182],[-104.9880154,39.9380268],[-104.9879929,39.9374201],[-104.9879842,39.9371255],[-104.9879246,39.9342446],[-104.9879005,39.9314191],[-104.9878786,39.9288559],[-104.9878768,39.92741],[-104.9878488,39.9258587],[-104.9878205,39.9244848],[-104.9877986,39.921226],[-104.9878136,39.92067],[-104.9878571,39.9200931],[-104.9878822,39.919874],[-104.9879425,39.9194562],[-104.9883855,39.9177485],[-104.9886401,39.9169999],[-104.9887151,39.9167969],[-104.9887913,39.9166094],[-104.988922,39.916188],[-104.9896875,39.914493],[-104.9898031,39.9142392],[-104.9899175,39.9139975],[-104.990006,39.9137906],[-104.9900866,39.9135979],[-104.9901497,39.9134509],[-104.9902173,39.9133006],[-104.9902577,39.9131949],[-104.9902926,39.9130979],[-104.9903439,39.9129672],[-104.9903822,39.912841],[-104.9904287,39.9126903],[-104.9905041,39.9124613],[-104.9905535,39.9122886],[-104.9905859,39.9121666],[-104.9906306,39.9119936],[-104.9906718,39.911846],[-104.9907062,39.9116861],[-104.990738,39.9115284],[-104.990803,39.9112459],[-104.9908269,39.9111223],[-104.990913,39.9106538],[-104.9909207,39.9105575],[-104.9909377,39.9104011],[-104.9909459,39.910259],[-104.9909649,39.9101754],[-104.9909814,39.9100596],[-104.9910004,39.9097966],[-104.9910168,39.9092351],[-104.9909969,39.9084187],[-104.9909652,39.9080249],[-104.9909302,39.9077282],[-104.9909187,39.9076312],[-104.9908967,39.9074423],[-104.9908586,39.9072027],[-104.9908105,39.9069713],[-104.9907671,39.9067464],[-104.9907237,39.9065526],[-104.9907083,39.9064891],[-104.9906782,39.906367],[-104.9906549,39.9062806],[-104.9906302,39.906178],[-104.9906026,39.9060547],[-104.9905852,39.9059802],[-104.9905349,39.9058057],[-104.9904777,39.9056435],[-104.9904207,39.9054606],[-104.9903669,39.905313],[-104.9903016,39.9051339],[-104.9901746,39.904821],[-104.9899278,39.904223],[-104.9898771,39.9040989],[-104.9897142,39.903764],[-104.9896732,39.9036817],[-104.9895763,39.903499],[-104.989367,39.9030704],[-104.9891727,39.9026726],[-104.9890709,39.9024645],[-104.9889734,39.9022602],[-104.9888785,39.9020551],[-104.9887861,39.9018418],[-104.9886108,39.90143],[-104.9885285,39.9012222],[-104.9884521,39.9010146],[-104.9883768,39.9007977],[-104.9883076,39.9005909],[-104.9882395,39.9003755],[-104.9881762,39.9001554],[-104.9881194,39.8999443],[-104.9880646,39.899728],[-104.9880352,39.8996064],[-104.9880046,39.8994772],[-104.9879844,39.8993878],[-104.9879434,39.8991877],[-104.9879275,39.8991069],[-104.9878776,39.8988746],[-104.9878031,39.8984443],[-104.987735,39.8978788],[-104.9877357,39.8976296],[-104.9877276,39.8974757],[-104.9877225,39.8973701],[-104.9877197,39.8972802],[-104.987717,39.8971347],[-104.9877142,39.8969167],[-104.9877105,39.8966869],[-104.9877084,39.895822],[-104.9877065,39.8949483],[-104.9876992,39.8935117],[-104.9876988,39.8929539],[-104.987698,39.8918505],[-104.9876955,39.8910797],[-104.9876985,39.8905416],[-104.9876945,39.8900324],[-104.9877039,39.8893237],[-104.9877008,39.8887864],[-104.9876851,39.8883046],[-104.9876871,39.8877717],[-104.9876859,39.8869616],[-104.9876842,39.8863997],[-104.9876835,39.8850377],[-104.9876833,39.883666],[-104.9876963,39.8825312],[-104.9876894,39.8804312],[-104.9876907,39.8795345],[-104.9876908,39.8793634],[-104.9876924,39.8780041],[-104.9876929,39.8777354],[-104.9876948,39.8773399],[-104.9876965,39.8770025],[-104.9876993,39.8762071],[-104.9877001,39.8753591],[-104.9877005,39.8748083],[-104.9877019,39.8742654],[-104.9877007,39.873746],[-104.987703,39.8729488],[-104.9877073,39.8714003],[-104.9877083,39.8711141],[-104.9877071,39.8705708],[-104.9877097,39.8694684],[-104.9877112,39.8683664],[-104.9877174,39.864586],[-104.9877133,39.8637052],[-104.9877368,39.8626881],[-104.9877229,39.860997],[-104.9877233,39.8598397],[-104.987711,39.859126],[-104.9877039,39.8589647],[-104.9876904,39.8587332],[-104.9876664,39.85844],[-104.9876574,39.8583496],[-104.9876105,39.8580229],[-104.9875909,39.8578866],[-104.9875494,39.8576528],[-104.9873389,39.8564969],[-104.9871967,39.8558391],[-104.9870542,39.8551916],[-104.986966,39.854774],[-104.9868792,39.8543893],[-104.9866845,39.8535228],[-104.9865222,39.8527858],[-104.986365,39.8520476],[-104.9862469,39.8515284],[-104.9861309,39.8510138],[-104.9858605,39.8497617],[-104.9857858,39.8494348],[-104.9855176,39.8481676],[-104.9850046,39.8457925],[-104.9849604,39.8455454],[-104.9848159,39.8446927],[-104.9846304,39.8438691],[-104.9844712,39.8431133],[-104.9843138,39.8423991],[-104.9842096,39.8419203],[-104.9841603,39.8416812],[-104.9841035,39.8413886],[-104.9840643,39.8411614],[-104.9840478,39.8410615],[-104.9840271,39.8409119],[-104.9839997,39.8406753],[-104.9839788,39.8404881],[-104.9839617,39.8403199],[-104.9839491,39.8401499],[-104.9839367,39.8399621],[-104.9838487,39.8383174],[-104.9838233,39.8377074],[-104.9838006,39.8373169],[-104.9837852,39.8370526],[-104.9837361,39.8362515],[-104.9837001,39.8356499],[-104.9836826,39.8353345],[-104.9836416,39.834667],[-104.9835811,39.8337462],[-104.9835418,39.8330212],[-104.9835199,39.8326503],[-104.9834997,39.8323188],[-104.9834807,39.8320674],[-104.9834348,39.8314366],[-104.9833861,39.830865],[-104.9833726,39.8306732],[-104.983339,39.8300094],[-104.9833161,39.829682],[-104.9833003,39.8294589],[-104.9832847,39.8291814],[-104.9832616,39.8288074],[-104.9832539,39.8286551],[-104.9832426,39.8284859],[-104.9831958,39.827946],[-104.9831862,39.8277129],[-104.9831806,39.8274015],[-104.9831778,39.8272164],[-104.9831757,39.8269452],[-104.9831746,39.8267171],[-104.9831763,39.8263363],[-104.9831787,39.8258923],[-104.983184,39.825349],[-104.9831794,39.824663],[-104.9831828,39.8243688],[-104.9831608,39.8239021],[-104.983189,39.8232145],[-104.9831922,39.8230303],[-104.9831978,39.8225173],[-104.9832068,39.8215855],[-104.9832098,39.8212723],[-104.9832058,39.8211613],[-104.9832104,39.8208086],[-104.9832114,39.8204337],[-104.9832082,39.8198433],[-104.9832016,39.8194022],[-104.9831994,39.8182623],[-104.9831999,39.8180976],[-104.9832014,39.8179813],[-104.9832047,39.8178439],[-104.9832433,39.8170511],[-104.9832452,39.8151371],[-104.9832599,39.8133534],[-104.9832698,39.8121441],[-104.983272,39.811618],[-104.9832766,39.8103351],[-104.9833025,39.8094328],[-104.9833106,39.8088957],[-104.9833173,39.8082251],[-104.9833183,39.807854],[-104.9833253,39.8071],[-104.9833256,39.8069373],[-104.9833283,39.8067662],[-104.9833308,39.8066573],[-104.9833336,39.8065701],[-104.983337,39.8065004],[-104.983346,39.8063585],[-104.9833553,39.806244],[-104.9833689,39.8060905],[-104.9833747,39.8060379],[-104.9833839,39.8059622],[-104.9833934,39.8058937],[-104.9834091,39.8058003],[-104.983535,39.8051963],[-104.9838049,39.8042541],[-104.9838323,39.8041665],[-104.9838984,39.8039773],[-104.983933,39.8038839],[-104.984011,39.8036895],[-104.9840724,39.8035482],[-104.9841217,39.8034403],[-104.9841952,39.8032865],[-104.9843116,39.8030554],[-104.9844056,39.802868],[-104.9845062,39.8026743],[-104.9846189,39.8024599],[-104.9847354,39.8022279],[-104.9850439,39.8016247],[-104.985354,39.8010231],[-104.9855676,39.8005989],[-104.9864928,39.7988596],[-104.9871165,39.7974871],[-104.9877361,39.795857],[-104.9878625,39.7953466],[-104.9879322,39.7950584],[-104.9880463,39.794613],[-104.988147,39.79415],[-104.988388,39.793057],[-104.988488,39.792636],[-104.988811,39.7912385],[-104.988889,39.7908939],[-104.9891551,39.7898123],[-104.9893268,39.7890341],[-104.9894116,39.7884993],[-104.9894646,39.7881052],[-104.9895324,39.7871749],[-104.9895443,39.786894],[-104.9895518,39.7846926],[-104.9895574,39.7842863],[-104.9895654,39.7837115],[-104.9895684,39.7815245],[-104.9895871,39.7805444],[-104.9895886,39.7778851],[-104.9895806,39.7764348],[-104.9895879,39.7761719],[-104.9895895,39.7758255],[-104.9895992,39.7753268],[-104.9896038,39.7751442],[-104.9896147,39.7749705],[-104.9896308,39.774816],[-104.9896577,39.774623],[-104.9896842,39.7744552],[-104.989713,39.7742927],[-104.9897483,39.7741065],[-104.9898055,39.7738646],[-104.9898911,39.7735457],[-104.9899402,39.7733729],[-104.990008,39.773179],[-104.9900835,39.7729751],[-104.9901611,39.7727793],[-104.9902403,39.7725926],[-104.9903469,39.7723751],[-104.9904552,39.7721563],[-104.9905878,39.7719127],[-104.9910384,39.7712217],[-104.9916421,39.7704952],[-104.9918748,39.7702609],[-104.9921441,39.7700115],[-104.9924171,39.7697811],[-104.9927277,39.7695466],[-104.9930729,39.7693237],[-104.9933642,39.7691451],[-104.993616,39.7690071],[-104.993924,39.7688565],[-104.9943581,39.7686241],[-104.9945511,39.7685347],[-104.9951208,39.7682811],[-104.9953569,39.7681938],[-104.9958036,39.7680206],[-104.9969425,39.7675804],[-104.9980609,39.7671542],[-104.9985617,39.7669654],[-104.9989033,39.7668273],[-104.9991517,39.7667133],[-104.999445,39.7665676],[-104.9997029,39.7664182],[-104.999911,39.7662747],[-105.000149,39.7661105],[-105.0003155,39.7659908],[-105.0004636,39.7658819],[-105.0006234,39.7657525],[-105.0008162,39.7655676],[-105.0010095,39.7653657],[-105.0011777,39.7651842],[-105.0015861,39.7646993],[-105.0017782,39.7644736],[-105.0027499,39.7632828],[-105.003313,39.7626217],[-105.0034993,39.7624057],[-105.0036826,39.7622026],[-105.0038873,39.7619887],[-105.0040761,39.7617976],[-105.0042711,39.7616098],[-105.004453,39.7614433],[-105.0046659,39.7612617],[-105.0049317,39.7610384],[-105.0056016,39.7605616],[-105.0072038,39.759455],[-105.0084002,39.7586191],[-105.0091096,39.7580964],[-105.0101548,39.7572801],[-105.0103866,39.7570979],[-105.0108855,39.7567374],[-105.0126481,39.7554679],[-105.0129665,39.755245],[-105.0133112,39.7549734],[-105.0135973,39.7547512],[-105.0142769,39.7542389],[-105.0145691,39.7540078],[-105.0147732,39.7538422],[-105.014926,39.7537075],[-105.0151367,39.7535203],[-105.0152971,39.7533671],[-105.015487,39.753172],[-105.0156753,39.7529719],[-105.0158151,39.7528124],[-105.0159762,39.7526163],[-105.0161397,39.7523979],[-105.0162705,39.7522221],[-105.0163941,39.7520358],[-105.0165051,39.7518526],[-105.0166163,39.7516584],[-105.0167099,39.7514836],[-105.0168686,39.751179],[-105.0169949,39.7509018],[-105.0171033,39.7506352],[-105.0174418,39.7498315],[-105.0176361,39.7493803],[-105.0178354,39.748892],[-105.0179871,39.7485299],[-105.0181113,39.7482026],[-105.0181841,39.7479961],[-105.0182549,39.7477579],[-105.0183063,39.747552],[-105.0183431,39.7473572],[-105.0183645,39.7471069],[-105.0183721,39.7468968],[-105.0183655,39.7466693],[-105.0183529,39.7465093],[-105.018328,39.7463287],[-105.0182868,39.7461325],[-105.0182468,39.7459777],[-105.018196,39.7458137],[-105.0181147,39.7456097],[-105.0180056,39.7453814],[-105.01787,39.7451438],[-105.0177413,39.744939],[-105.0176117,39.7447495],[-105.0174804,39.7445796],[-105.0173636,39.7444466],[-105.0171034,39.7441747],[-105.0167997,39.7438928],[-105.0163238,39.7434505],[-105.0158773,39.7430247],[-105.0157245,39.7428764],[-105.0155396,39.742693],[-105.0153825,39.742534],[-105.0152141,39.7423508],[-105.0150529,39.7421663],[-105.0149128,39.7419952],[-105.0148331,39.7418895],[-105.0147785,39.7418103],[-105.0147232,39.7417187],[-105.0146567,39.7416102],[-105.0146168,39.7415414],[-105.0145845,39.7414835],[-105.0145154,39.7413584],[-105.0144459,39.7411942],[-105.014367,39.7409951],[-105.0142914,39.7407677],[-105.0142534,39.7406205],[-105.0142349,39.7405381],[-105.014206,39.7403916],[-105.0141816,39.740238],[-105.0141708,39.7401511],[-105.0141391,39.739871],[-105.0140684,39.7388161],[-105.0140633,39.738613],[-105.0140615,39.7384154],[-105.0140688,39.7382441],[-105.0140815,39.738079],[-105.0141027,39.7379033],[-105.0141379,39.737706],[-105.0141934,39.7374564],[-105.0142795,39.7371483],[-105.0143632,39.7368777],[-105.0144217,39.7366836],[-105.0145177,39.7364083],[-105.0146007,39.7361895],[-105.0146438,39.7360759],[-105.0147155,39.7359059],[-105.0147821,39.735761],[-105.0149887,39.7353364],[-105.0152866,39.7347761],[-105.0153649,39.7346183],[-105.0154291,39.7344827],[-105.0154888,39.73434],[-105.015548,39.7341846],[-105.0156219,39.7339752],[-105.0156667,39.7338306],[-105.0157023,39.7337048],[-105.01574,39.7335643],[-105.0157698,39.733438],[-105.0157958,39.7333046],[-105.0158197,39.7331714],[-105.0158406,39.7330134],[-105.0158552,39.7328565],[-105.0158641,39.7327201],[-105.0158712,39.7325756],[-105.0158771,39.7324386],[-105.0158822,39.7323028],[-105.0158829,39.7321863],[-105.0158799,39.732071],[-105.0158714,39.7319516],[-105.015854,39.731791],[-105.0158006,39.7315533],[-105.0157288,39.7312422],[-105.0156848,39.7310759],[-105.0156172,39.7308452],[-105.015531,39.7305672],[-105.0154066,39.7302034],[-105.015313,39.7299518],[-105.0151787,39.7295273],[-105.0150404,39.7291218],[-105.014939,39.7288432],[-105.0147802,39.7284425],[-105.0147304,39.7283215],[-105.0146631,39.7281456],[-105.014589,39.7279429],[-105.0144107,39.7274414],[-105.0142764,39.7271105],[-105.0142133,39.7269467],[-105.0141255,39.7267496],[-105.0140394,39.7265605],[-105.0139475,39.7263769],[-105.0138757,39.7262483],[-105.0136298,39.7258555],[-105.0132278,39.725278],[-105.0129762,39.7249328],[-105.0128005,39.7247181],[-105.0126248,39.7245147],[-105.0123961,39.7242687],[-105.0122136,39.7240857],[-105.0120196,39.7238981],[-105.0118856,39.7237747],[-105.0116824,39.7235979],[-105.0114997,39.7234395],[-105.0113376,39.7233024],[-105.0110651,39.7230793],[-105.0106693,39.7227906],[-105.0103857,39.7225851],[-105.0099083,39.7222521],[-105.0096458,39.7220563],[-105.0094681,39.7219202],[-105.0092499,39.7217457],[-105.0091366,39.7216501],[-105.0088819,39.7214235],[-105.0086127,39.7211726],[-105.0081789,39.720743],[-105.007945,39.7205243],[-105.0074684,39.72008],[-105.0073762,39.7199916],[-105.0071188,39.7197533],[-105.0067541,39.7194128],[-105.0065725,39.7192416],[-105.0063993,39.7190857],[-105.0062361,39.7189382],[-105.0060879,39.7188055],[-105.0059156,39.7186599],[-105.0057103,39.7184905],[-105.0055581,39.7183721],[-105.0054139,39.7182627],[-105.0052183,39.7181204],[-105.0049302,39.7179223],[-105.0044539,39.7175984],[-105.0038054,39.7171666],[-105.0033829,39.7168806],[-105.0031431,39.7167151],[-105.0029223,39.7165523],[-105.0027653,39.7164307],[-105.0026487,39.7163367],[-105.0025448,39.7162468],[-105.0024691,39.7161788],[-105.0023701,39.7160851],[-105.0022847,39.715999],[-105.0022214,39.7159345],[-105.0021753,39.7158841],[-105.002064,39.7157565],[-105.0019822,39.7156597],[-105.0018886,39.7155394],[-105.0018127,39.7154388],[-105.0017362,39.7153323],[-105.0016628,39.7152205],[-105.001517,39.7149915],[-105.0010768,39.714325],[-105.0008626,39.7139961],[-105.0005237,39.7134681],[-105.0003496,39.7131842],[-105.000031,39.7126621],[-104.9997817,39.7122347],[-104.9994086,39.7115947]]}}]}
