{"type":"FeatureCollection","properties":{"corridor":"I70","geometryVersion":1,"source":"OpenStreetMap","attribution":"\u00a9 OpenStreetMap contributors","license":"https://www.openstreetmap.org/copyright"},"features":[{"type":"Feature","properties":{"corridor":"I70","direction":"EASTBOUND","geometryVersion":1,"source":"OpenStreetMap","sourceRelationId":6894122,"sourceRelationVersion":219,"sourceTimestamp":"2026-07-07T04:04:17Z","monitoredMileStart":206.0,"monitoredMileEnd":259.0},"geometry":{"type":"LineString","coordinates":[[-106.0585397,39.6320103],[-106.0564618,39.632837],[-106.0551449,39.6333702],[-106.0538388,39.6338902],[-106.0534539,39.634056],[-106.0530313,39.6342499],[-106.0527061,39.6344314],[-106.0523265,39.6346669],[-106.0518727,39.6349921],[-106.0514867,39.6352976],[-106.0505938,39.6360426],[-106.0492503,39.6371628],[-106.0484125,39.6378108],[-106.0478552,39.6382004],[-106.0473375,39.6385398],[-106.0464532,39.6390593],[-106.0455612,39.639531],[-106.0447245,39.6399331],[-106.0436059,39.6404636],[-106.0419238,39.6412586],[-106.0417054,39.6413593],[-106.0364386,39.6438191],[-106.0357791,39.6441199],[-106.0353746,39.6442651],[-106.034698,39.6444685],[-106.0341335,39.6445785],[-106.0335917,39.6446585],[-106.0323752,39.6447747],[-106.0315593,39.6448463],[-106.0294425,39.6450298],[-106.028815,39.645113],[-106.028373,39.6452062],[-106.0279918,39.6453201],[-106.0276227,39.6454551],[-106.0271967,39.6456452],[-106.0265499,39.6460139],[-106.0262107,39.6462321],[-106.0244746,39.6473783],[-106.0227551,39.6484984],[-106.0223495,39.6487393],[-106.0220275,39.6489077],[-106.0216711,39.6490587],[-106.0212502,39.649195],[-106.0204293,39.6494208],[-106.0194195,39.6496707],[-106.0190082,39.6497701],[-106.0184658,39.6499534],[-106.017988,39.6501544],[-106.0176445,39.6503374],[-106.0166801,39.6509538],[-106.0160217,39.6513874],[-106.0155828,39.6516402],[-106.0152897,39.6517866],[-106.0148399,39.6519701],[-106.0144501,39.6521001],[-106.0139582,39.6522275],[-106.0126232,39.6524921],[-106.0114226,39.6527216],[-106.0101496,39.6529722],[-106.0096122,39.6530595],[-106.0091305,39.6531037],[-106.0086208,39.6531208],[-106.0065604,39.6531597],[-106.005314,39.6531862],[-106.004457,39.6532462],[-106.0037684,39.6533453],[-106.0029773,39.6534917],[-106.0020288,39.6537065],[-106.0015194,39.6538376],[-106.0006097,39.6540742],[-105.9998483,39.6543426],[-105.9990378,39.6546636],[-105.9985845,39.6548668],[-105.9980569,39.6551273],[-105.9975293,39.6553998],[-105.9960574,39.6562167],[-105.9956228,39.6564383],[-105.9952286,39.6566003],[-105.994704,39.6568021],[-105.9935565,39.6571566],[-105.9929282,39.6573452],[-105.9923373,39.6575584],[-105.9919174,39.6577333],[-105.9914241,39.6579694],[-105.9908228,39.6583333],[-105.9897532,39.6590195],[-105.9886702,39.6597149],[-105.9880752,39.6600628],[-105.9873969,39.6604056],[-105.9866433,39.6607254],[-105.9859777,39.6609893],[-105.9851799,39.661261],[-105.9839215,39.6616758],[-105.9827557,39.6620845],[-105.9823501,39.6622645],[-105.981941,39.6624687],[-105.9815413,39.6627071],[-105.9812454,39.6628963],[-105.9803163,39.6636006],[-105.9790081,39.6645669],[-105.9781864,39.6651866],[-105.9777062,39.6655609],[-105.9771962,39.6660373],[-105.9768688,39.6665012],[-105.9766651,39.6668651],[-105.9763588,39.6674148],[-105.9759859,39.6681496],[-105.9757679,39.6685738],[-105.9755306,39.6689712],[-105.9753044,39.6693008],[-105.9750415,39.6696279],[-105.9746943,39.6699821],[-105.9743302,39.6703167],[-105.9718524,39.6723635],[-105.9715214,39.6726264],[-105.9711912,39.6728548],[-105.9709232,39.6730198],[-105.970461,39.673227],[-105.9699441,39.6734228],[-105.9694259,39.673557],[-105.9689856,39.6736372],[-105.9685274,39.6736933],[-105.9680052,39.6737326],[-105.96734,39.6737544],[-105.9660219,39.6738183],[-105.9649991,39.6738575],[-105.9632259,39.6739352],[-105.9619442,39.6739894],[-105.9614742,39.6740212],[-105.9609598,39.6740878],[-105.9604255,39.6742016],[-105.9598133,39.6743927],[-105.959163,39.6746631],[-105.956289,39.6760587],[-105.9556159,39.6763878],[-105.9550617,39.6766179],[-105.9545776,39.6767703],[-105.9540409,39.6768887],[-105.9535474,39.6769579],[-105.9530671,39.6769891],[-105.9523231,39.6770053],[-105.9515617,39.6770002],[-105.9501167,39.677009],[-105.9487808,39.677002],[-105.9478615,39.6769838],[-105.946678,39.6769061],[-105.9458909,39.6768205],[-105.9448694,39.6766916],[-105.944038,39.6765994],[-105.9434243,39.676578],[-105.9428534,39.6765876],[-105.9422616,39.6766233],[-105.9418141,39.6766853],[-105.9412716,39.676795],[-105.9406748,39.6769323],[-105.9400616,39.6771061],[-105.9394305,39.6773326],[-105.9371859,39.6782458],[-105.9367799,39.6783845],[-105.936352,39.6784948],[-105.935982,39.6785698],[-105.9358556,39.6785887],[-105.9357889,39.6785987],[-105.9356506,39.6786195],[-105.9351203,39.6786743],[-105.9344459,39.6787025],[-105.9330243,39.6787048],[-105.9311575,39.6787213],[-105.9293765,39.6787255],[-105.9276009,39.6787379],[-105.9241971,39.6787337],[-105.9208578,39.6787853],[-105.9199079,39.6788108],[-105.9181997,39.67884],[-105.9165663,39.6788369],[-105.9133396,39.6788307],[-105.9066956,39.6787365],[-105.905816,39.6787301],[-105.905478,39.6787317],[-105.9050814,39.6787467],[-105.9046894,39.6787709],[-105.904285,39.6788081],[-105.9037721,39.6788906],[-105.9033341,39.678976],[-105.9027702,39.6791422],[-105.9020275,39.6794266],[-105.9016417,39.6795993],[-105.9012347,39.6797914],[-105.8995994,39.6806651],[-105.8989433,39.6809841],[-105.898431,39.6811937],[-105.8981356,39.6813011],[-105.8979061,39.6813574],[-105.8975333,39.6814524],[-105.8971524,39.6815246],[-105.8966777,39.6815866],[-105.8962848,39.6816152],[-105.8958236,39.681632],[-105.893607,39.68164],[-105.8925713,39.681642],[-105.8922194,39.6816395],[-105.8918608,39.6816589],[-105.8913729,39.6817063],[-105.89096,39.681766],[-105.8905277,39.6818464],[-105.8900303,39.6819709],[-105.8894369,39.682175],[-105.8891335,39.6823075],[-105.8888304,39.682452],[-105.8885886,39.6825714],[-105.8883208,39.6827057],[-105.8878695,39.6829912],[-105.8876606,39.683162],[-105.8875096,39.6832766],[-105.8873543,39.6834037],[-105.8871052,39.6836304],[-105.8865821,39.6841272],[-105.8861419,39.6846305],[-105.8847664,39.6860859],[-105.8837073,39.6872012],[-105.8827962,39.68813],[-105.8821527,39.688752],[-105.8815092,39.6893533],[-105.8804773,39.6902951],[-105.8793033,39.6913562],[-105.8789922,39.6916398],[-105.8772793,39.6932027],[-105.8764573,39.6939421],[-105.8758724,39.6944315],[-105.875008,39.6950797],[-105.874395,39.695498],[-105.8736281,39.6959759],[-105.8731933,39.6962235],[-105.8726187,39.6965402],[-105.8694454,39.6982486],[-105.8683098,39.6988597],[-105.8673865,39.6993566],[-105.8662287,39.6999906],[-105.8650584,39.7006236],[-105.8644324,39.7009076],[-105.8637126,39.7011446],[-105.8630133,39.7013094],[-105.8626313,39.7013857],[-105.8621522,39.7014461],[-105.8616608,39.7014808],[-105.861089,39.7014939],[-105.8606782,39.701505],[-105.860104,39.7015249],[-105.8584982,39.7015739],[-105.8574971,39.7015921],[-105.8566944,39.7016031],[-105.855985,39.701618],[-105.853057,39.701717],[-105.851572,39.701757],[-105.847914,39.701886],[-105.8464908,39.7019413],[-105.845629,39.701962],[-105.84546,39.701963],[-105.84484,39.701966],[-105.843978,39.701922],[-105.843412,39.701842],[-105.842554,39.701668],[-105.8405953,39.7010524],[-105.840158,39.700915],[-105.83864,39.70041],[-105.8371359,39.6999535],[-105.8362112,39.6996384],[-105.8344285,39.699052],[-105.833632,39.698677],[-105.832976,39.698394],[-105.832002,39.697886],[-105.831065,39.69742],[-105.828678,39.696245],[-105.825874,39.69485],[-105.824924,39.694388],[-105.824103,39.694004],[-105.823529,39.693794],[-105.822924,39.69364],[-105.822604,39.693558],[-105.821799,39.693402],[-105.819636,39.693083],[-105.81855,39.692956],[-105.815916,39.692592],[-105.814167,39.692329],[-105.813044,39.692146],[-105.812028,39.691953],[-105.811341,39.691835],[-105.810699,39.69174],[-105.81039,39.691708],[-105.810048,39.691696],[-105.809604,39.691696],[-105.80947,39.691703],[-105.808835,39.691754],[-105.808296,39.691835],[-105.807713,39.691949],[-105.807253,39.692055],[-105.804872,39.692576],[-105.804822,39.692587],[-105.80452,39.692653],[-105.803789,39.692821],[-105.802742,39.693045],[-105.80194,39.693245],[-105.800992,39.693535],[-105.799847,39.693897],[-105.7991033,39.6941393],[-105.797573,39.694638],[-105.795566,39.695309],[-105.795059,39.695473],[-105.794224,39.6956495],[-105.793732,39.695671],[-105.793173,39.695706],[-105.792626,39.695706],[-105.792259,39.695686],[-105.791793,39.695638],[-105.791307,39.69556],[-105.790858,39.695459],[-105.790412,39.695335],[-105.790001,39.695199],[-105.789705,39.69509],[-105.789434,39.694982],[-105.788794,39.694742],[-105.788454,39.694625],[-105.788092,39.694515],[-105.78763,39.694399],[-105.787237,39.694327],[-105.786888,39.694283],[-105.786533,39.694255],[-105.786227,39.694244],[-105.785747,39.694247],[-105.785363,39.694268],[-105.783355,39.694441],[-105.781997,39.694554],[-105.781063,39.694617],[-105.780227,39.69466],[-105.7789298,39.694709],[-105.773369,39.694919],[-105.772847,39.694945],[-105.772583,39.694967],[-105.77216,39.695012],[-105.771699,39.695085],[-105.771238,39.695178],[-105.770729,39.695297],[-105.7680779,39.6959487],[-105.767922,39.695987],[-105.767392,39.696096],[-105.767104,39.696145],[-105.766669,39.6962],[-105.766325,39.696226],[-105.766008,39.696237],[-105.765607,39.696232],[-105.765464,39.696224],[-105.7652493,39.6962139],[-105.764935,39.696178],[-105.764328,39.69609],[-105.7639875,39.6960297],[-105.762871,39.695832],[-105.762622,39.695795],[-105.761967,39.695733],[-105.761675,39.695722],[-105.761217,39.695719],[-105.760793,39.695738],[-105.760443,39.695772],[-105.760138,39.695814],[-105.757279,39.696239],[-105.756466,39.696334],[-105.756208,39.696358],[-105.755951,39.696377],[-105.755438,39.696408],[-105.754721,39.69644],[-105.750596,39.6965719],[-105.749061,39.696621],[-105.748588,39.696644],[-105.748019,39.696666],[-105.747482,39.696679],[-105.747135,39.69668],[-105.746833,39.696674],[-105.746283,39.696649],[-105.74577,39.696605],[-105.745511,39.696574],[-105.744052,39.696364],[-105.742047,39.696063],[-105.7409372,39.6958806],[-105.7400304,39.6957378],[-105.739539,39.695663],[-105.738745,39.695546],[-105.737437,39.695332],[-105.736497,39.695191],[-105.735792,39.695098],[-105.734963,39.694975],[-105.730596,39.69431],[-105.729532,39.694164],[-105.729305,39.694145],[-105.728923,39.694132],[-105.728525,39.69413],[-105.728113,39.694147],[-105.727716,39.694193],[-105.7273,39.694261],[-105.727011,39.69432],[-105.726797,39.694372],[-105.726451,39.69447],[-105.7258847,39.69467],[-105.7254184,39.6948967],[-105.724085,39.695621],[-105.723896,39.695738],[-105.723575,39.695918],[-105.7230603,39.6961881],[-105.721489,39.6970493],[-105.7208439,39.6973837],[-105.7203457,39.6976097],[-105.7200879,39.6977112],[-105.7198361,39.6977964],[-105.7195416,39.697885],[-105.7192618,39.6979561],[-105.7188386,39.6980474],[-105.7185904,39.6980918],[-105.718267,39.6981438],[-105.7165811,39.6983802],[-105.7161208,39.6984523],[-105.7154678,39.6985724],[-105.7143898,39.6988048],[-105.7139842,39.6989066],[-105.7133431,39.6990863],[-105.7105292,39.6998958],[-105.7102891,39.6999752],[-105.7100068,39.7000794],[-105.7097586,39.7001825],[-105.7094966,39.7003022],[-105.709194,39.7004516],[-105.7089779,39.700572],[-105.7087513,39.7007105],[-105.7085045,39.700874],[-105.7082515,39.7010585],[-105.707336,39.701776],[-105.7062202,39.7026694],[-105.7055186,39.7031414],[-105.704884,39.7035387],[-105.7042866,39.7039433],[-105.7037382,39.7043358],[-105.702811,39.7050375],[-105.701513,39.7060792],[-105.700274,39.707085],[-105.6993007,39.7078598],[-105.6988684,39.7082212],[-105.698569,39.7084865],[-105.6983673,39.708687],[-105.6982238,39.7088431],[-105.6979649,39.7091553],[-105.6977418,39.7094913],[-105.6976299,39.7096883],[-105.697535,39.7098802],[-105.6973618,39.7103363],[-105.6972784,39.7105957],[-105.6972261,39.7108155],[-105.6971027,39.7115422],[-105.6970094,39.7121848],[-105.696859,39.7134352],[-105.6967334,39.7142737],[-105.6965828,39.7151807],[-105.6965181,39.7156345],[-105.6963105,39.7171445],[-105.6960042,39.7191406],[-105.6958444,39.7201354],[-105.6956975,39.7210057],[-105.6955947,39.7215839],[-105.695531,39.721942],[-105.695497,39.722105],[-105.6954412,39.7223757],[-105.6953703,39.7226684],[-105.6952973,39.72294],[-105.6952245,39.7231741],[-105.6951288,39.723459],[-105.6946785,39.7246737],[-105.6943496,39.7255411],[-105.694244,39.7258196],[-105.6939911,39.7264994],[-105.6936505,39.7273971],[-105.6934821,39.7278385],[-105.6927826,39.7296966],[-105.6924233,39.7306183],[-105.6923446,39.7308138],[-105.6922629,39.7310115],[-105.6921429,39.7312602],[-105.6920174,39.7314907],[-105.6919434,39.7316173],[-105.6917825,39.731879],[-105.6916452,39.7320869],[-105.6914594,39.732346],[-105.6912755,39.7325781],[-105.691093,39.7327926],[-105.6908054,39.7331105],[-105.6903854,39.7335403],[-105.6899357,39.7339928],[-105.6891158,39.7348227],[-105.6886641,39.7352769],[-105.688164,39.735785],[-105.687699,39.736259],[-105.687211,39.7367652],[-105.6868843,39.7371355],[-105.6866373,39.7374494],[-105.6864423,39.7377166],[-105.6862553,39.7379994],[-105.6860894,39.7382812],[-105.6859555,39.738515],[-105.6857033,39.738987],[-105.6853314,39.7396725],[-105.6847454,39.7407632],[-105.684625,39.7409876],[-105.6845067,39.7411922],[-105.6843837,39.7413922],[-105.6842486,39.7416049],[-105.6841314,39.7417731],[-105.683948,39.742003],[-105.683768,39.742208],[-105.683677,39.742304],[-105.6835986,39.742386],[-105.6834178,39.74256],[-105.683164,39.7427721],[-105.6828438,39.7430157],[-105.6825704,39.7432065],[-105.6821922,39.7434315],[-105.6819539,39.7435698],[-105.6815478,39.7437813],[-105.6809961,39.7440749],[-105.6800969,39.744556],[-105.6795715,39.7448319],[-105.6792249,39.7450072],[-105.6788047,39.7452069],[-105.6784435,39.7453701],[-105.6779158,39.7455931],[-105.6773366,39.7458251],[-105.6764694,39.7461687],[-105.6753779,39.7466036],[-105.6746774,39.7468814],[-105.674257,39.747048],[-105.668942,39.749158],[-105.667853,39.7496018],[-105.665887,39.7503846],[-105.6649662,39.7507528],[-105.662973,39.751542],[-105.66256,39.751722],[-105.662271,39.751859],[-105.6619762,39.7520118],[-105.661781,39.752116],[-105.661568,39.752243],[-105.661277,39.752429],[-105.660869,39.752723],[-105.660679,39.752873],[-105.660449,39.75307],[-105.6602661,39.7532407],[-105.6601269,39.7533761],[-105.6599877,39.7535211],[-105.6598343,39.7536926],[-105.6593984,39.7541994],[-105.6590154,39.7546675],[-105.6583384,39.7554796],[-105.6571598,39.7568758],[-105.6570299,39.7570281],[-105.6569016,39.7571755],[-105.6567238,39.7573771],[-105.6565011,39.7576254],[-105.6561399,39.7579818],[-105.6560132,39.7581031],[-105.6558798,39.758227],[-105.6558079,39.7582926],[-105.6556799,39.7584062],[-105.6556019,39.7584735],[-105.6554561,39.7585909],[-105.6552816,39.7587179],[-105.6551186,39.7588335],[-105.6549064,39.7589792],[-105.6547232,39.7591015],[-105.6545493,39.7592097],[-105.654312,39.7593517],[-105.6541218,39.759458],[-105.6538996,39.7595744],[-105.653697,39.759676],[-105.6534715,39.7597827],[-105.6532076,39.7599012],[-105.6529519,39.7600091],[-105.6527402,39.7600909],[-105.6525173,39.7601712],[-105.652317,39.7602398],[-105.6520105,39.7603375],[-105.6516934,39.760433],[-105.6513456,39.7605274],[-105.6507879,39.7606717],[-105.6494855,39.7610062],[-105.648716,39.7612078],[-105.6477499,39.7614587],[-105.6464251,39.7617964],[-105.6461543,39.7618633],[-105.6459418,39.7619144],[-105.6457397,39.7619621],[-105.6455617,39.762002],[-105.6453555,39.7620448],[-105.6450621,39.7621021],[-105.6447267,39.7621653],[-105.6436166,39.7623725],[-105.6432273,39.7624432],[-105.6425626,39.7625664],[-105.6405555,39.7629395],[-105.6393688,39.7631538],[-105.637899,39.7634279],[-105.637208,39.763563],[-105.6353489,39.763913],[-105.6346554,39.7640433],[-105.6339975,39.7641724],[-105.6337163,39.7642326],[-105.633416,39.7643018],[-105.6331281,39.7643782],[-105.6328609,39.7644549],[-105.6325872,39.7645402],[-105.6323022,39.7646381],[-105.6321268,39.7647016],[-105.631904,39.7647869],[-105.6317005,39.7648694],[-105.6313518,39.7650146],[-105.6310167,39.7651585],[-105.6306974,39.7652905],[-105.6304009,39.7654058],[-105.6301912,39.7654795],[-105.6300715,39.7655205],[-105.6298983,39.7655784],[-105.6296537,39.7656516],[-105.6294365,39.7657142],[-105.6292867,39.765755],[-105.6291339,39.7657945],[-105.6289753,39.7658339],[-105.6287927,39.7658769],[-105.6286262,39.7659139],[-105.6284929,39.765942],[-105.6283458,39.7659709],[-105.6281679,39.7660025],[-105.628011,39.7660271],[-105.6278139,39.7660542],[-105.6275791,39.766082],[-105.6272889,39.7661131],[-105.6269802,39.7661472],[-105.6264165,39.7662069],[-105.6250261,39.766358],[-105.62424,39.766425],[-105.623671,39.766453],[-105.622902,39.766474],[-105.622204,39.766468],[-105.62142,39.766443],[-105.620977,39.766419],[-105.6203578,39.7663715],[-105.6196858,39.7663084],[-105.6189297,39.7662134],[-105.6177797,39.7660393],[-105.6156886,39.7657036],[-105.6143106,39.7654907],[-105.6139436,39.7654432],[-105.6135217,39.7653956],[-105.6130159,39.7653508],[-105.6122412,39.7652976],[-105.609202,39.7651553],[-105.6064694,39.7650215],[-105.6060155,39.7649855],[-105.605309,39.76491],[-105.6045044,39.764805],[-105.6040244,39.7647302],[-105.601324,39.7642752],[-105.6001702,39.7640921],[-105.5996574,39.7640262],[-105.5992261,39.7639863],[-105.5989538,39.7639708],[-105.598391,39.7639535],[-105.5977753,39.7639587],[-105.5974235,39.7639696],[-105.5950253,39.7640954],[-105.591759,39.7642687],[-105.5910354,39.764275],[-105.5905492,39.7642634],[-105.5901035,39.7642429],[-105.5896491,39.7642035],[-105.582256,39.763456],[-105.580972,39.763334],[-105.580489,39.763278],[-105.5796978,39.7631541],[-105.5792994,39.7630754],[-105.5788697,39.7629767],[-105.5784943,39.7628776],[-105.5781503,39.7627761],[-105.5774767,39.7625511],[-105.5769102,39.7623343],[-105.5763731,39.7620945],[-105.5758198,39.7618188],[-105.5755293,39.7616638],[-105.5747779,39.7612613],[-105.5737262,39.7606791],[-105.5724882,39.7600143],[-105.5713233,39.7594077],[-105.5709917,39.7592448],[-105.5700467,39.7588132],[-105.5649457,39.7565903],[-105.5634595,39.7559334],[-105.5631306,39.7558015],[-105.5628664,39.755701],[-105.562422,39.7555614],[-105.5621931,39.7555079],[-105.5619644,39.7554642],[-105.5617343,39.7554306],[-105.5614902,39.7554091],[-105.5610703,39.7553936],[-105.5608012,39.7553994],[-105.559682,39.755494],[-105.559248,39.7555185],[-105.5589178,39.7555232],[-105.5586214,39.755508],[-105.5583331,39.755472],[-105.5580242,39.755415],[-105.557665,39.755332],[-105.557379,39.755238],[-105.557188,39.755164],[-105.556976,39.755069],[-105.556815,39.754986],[-105.5565402,39.7548198],[-105.556375,39.754709],[-105.5562252,39.7545968],[-105.5560489,39.7544496],[-105.5558935,39.7543039],[-105.5556208,39.7540214],[-105.5553648,39.7537703],[-105.5546534,39.7530347],[-105.5542431,39.7526224],[-105.5541783,39.7525635],[-105.5538554,39.7522994],[-105.5535802,39.7521069],[-105.5532769,39.751941],[-105.5530577,39.7518288],[-105.552756,39.7517044],[-105.5525318,39.7516227],[-105.5513396,39.7512561],[-105.551158,39.7511951],[-105.5508755,39.7510838],[-105.550569,39.7509313],[-105.550315,39.750782],[-105.549977,39.750559],[-105.549848,39.750461],[-105.549307,39.750003],[-105.5486882,39.7494571],[-105.5482191,39.7490872],[-105.547909,39.7488597],[-105.5475481,39.7485985],[-105.54685,39.748173],[-105.5464559,39.7479487],[-105.545759,39.747595],[-105.545546,39.747495],[-105.545038,39.747274],[-105.544469,39.747047],[-105.544051,39.746898],[-105.543686,39.746781],[-105.5432,39.746641],[-105.54181,39.746282],[-105.54105,39.746078],[-105.540739,39.745983],[-105.54041,39.745872],[-105.540099,39.745757],[-105.5388672,39.7452586],[-105.5383221,39.7450558],[-105.5378434,39.7448906],[-105.5372477,39.7447218],[-105.536976,39.744657],[-105.536698,39.7445953],[-105.5354541,39.7443583],[-105.5351366,39.744291],[-105.5348379,39.7442226],[-105.5342054,39.7440614],[-105.5335799,39.7438861],[-105.5331084,39.7437474],[-105.5324138,39.743543],[-105.5319568,39.7434296],[-105.5313117,39.7433061],[-105.5282064,39.7428772],[-105.527599,39.7427824],[-105.5272628,39.7427143],[-105.5268926,39.7426278],[-105.5264954,39.7425247],[-105.5228513,39.7414035],[-105.5221286,39.7411913],[-105.5218845,39.7411257],[-105.5215249,39.741041],[-105.521235,39.7409881],[-105.5206588,39.7408831],[-105.5200739,39.7408098],[-105.5197095,39.740774],[-105.5194014,39.740755],[-105.5188197,39.7407371],[-105.5181458,39.7407476],[-105.5173562,39.7407948],[-105.5168814,39.7408272],[-105.5166443,39.7408433],[-105.5164257,39.7408624],[-105.5159507,39.7409156],[-105.5155987,39.7409784],[-105.515171,39.7410671],[-105.514833,39.7411474],[-105.5141842,39.7412687],[-105.5139282,39.7413041],[-105.513694,39.7413265],[-105.5134451,39.7413401],[-105.5124933,39.7413555],[-105.512067,39.7413584],[-105.511511,39.741368],[-105.5106438,39.7413708],[-105.5102526,39.7413566],[-105.5099109,39.741317],[-105.5095518,39.7412601],[-105.5092836,39.7412044],[-105.5090153,39.7411343],[-105.5072516,39.7405869],[-105.5067435,39.7404578],[-105.5065531,39.7404186],[-105.5061507,39.7403629],[-105.5055768,39.7403176],[-105.5017685,39.7401842],[-105.5010223,39.7401707],[-105.5006423,39.7401769],[-105.500311,39.7401899],[-105.4997068,39.7402374],[-105.4990115,39.7403244],[-105.4986884,39.7403787],[-105.4983262,39.7404509],[-105.4980119,39.7405177],[-105.4977036,39.7405949],[-105.4974031,39.7406797],[-105.4968408,39.7408552],[-105.4965719,39.7409508],[-105.4963506,39.7410364],[-105.4958025,39.7412709],[-105.4949881,39.7416791],[-105.49435,39.7419802],[-105.4933056,39.7424543],[-105.4916174,39.7432611],[-105.4902882,39.7438794],[-105.4894364,39.7442534],[-105.4891801,39.7443455],[-105.4889382,39.7444207],[-105.4886992,39.7444902],[-105.4884724,39.7445399],[-105.4882534,39.7445806],[-105.4880537,39.7446075],[-105.4876152,39.7446378],[-105.4871904,39.7446367],[-105.4868192,39.7446046],[-105.4866434,39.7445825],[-105.4862932,39.744521],[-105.4860726,39.7444694],[-105.4855287,39.7443238],[-105.4847782,39.7441139],[-105.4846855,39.7440908],[-105.4844529,39.7440327],[-105.4840547,39.7439309],[-105.4837194,39.7438546],[-105.4833761,39.7437928],[-105.4830462,39.7437515],[-105.4827297,39.7437268],[-105.4824239,39.7437144],[-105.4821718,39.7437144],[-105.4819143,39.7437268],[-105.4816568,39.7437494],[-105.4811633,39.7438072],[-105.4801531,39.7439489],[-105.478752,39.7441454],[-105.476087,39.7445453],[-105.4735892,39.7449116],[-105.4728798,39.7450168],[-105.4723541,39.7450947],[-105.4721639,39.7451215],[-105.4719611,39.745149],[-105.4717531,39.7451744],[-105.4715814,39.7451924],[-105.4714145,39.7452073],[-105.4712413,39.7452191],[-105.4710389,39.7452272],[-105.4709188,39.7452295],[-105.4707397,39.7452268],[-105.4705984,39.7452192],[-105.470429,39.7452056],[-105.4702583,39.7451877],[-105.4701372,39.7451713],[-105.469959,39.7451434],[-105.4691455,39.7449941],[-105.4689829,39.7449671],[-105.4688608,39.7449521],[-105.4686574,39.7449332],[-105.4684836,39.7449265],[-105.4682902,39.7449288],[-105.4681067,39.7449415],[-105.4679325,39.7449638],[-105.4677442,39.7449965],[-105.4675683,39.745041],[-105.4673835,39.7451011],[-105.467187,39.7451797],[-105.4669987,39.7452657],[-105.4668407,39.7453498],[-105.4667139,39.7454217],[-105.466621,39.745489],[-105.466527,39.745559],[-105.466397,39.745669],[-105.4660193,39.7459447],[-105.465776,39.7461045],[-105.465578,39.746211],[-105.4653976,39.7463056],[-105.4652229,39.7463933],[-105.4650926,39.7464443],[-105.4649196,39.7465014],[-105.4646581,39.7465725],[-105.4645651,39.7465915],[-105.4644551,39.7466124],[-105.4643182,39.7466375],[-105.4641241,39.7466648],[-105.4639818,39.7466746],[-105.4638434,39.7466809],[-105.4637163,39.7466853],[-105.4635606,39.7466874],[-105.4634057,39.7466799],[-105.4629731,39.7466523],[-105.4615707,39.7464521],[-105.4612289,39.746396],[-105.4610289,39.7463583],[-105.4606425,39.7462829],[-105.4603558,39.7462168],[-105.4601262,39.7461552],[-105.4599264,39.7460983],[-105.4597527,39.7460442],[-105.4595991,39.7459938],[-105.4593979,39.7459195],[-105.4592021,39.7458432],[-105.459001,39.7457628],[-105.4587661,39.7456613],[-105.4585644,39.7455669],[-105.4583105,39.7454449],[-105.4580641,39.7453157],[-105.4577631,39.7451464],[-105.4573955,39.7449256],[-105.4567885,39.7445928],[-105.4562514,39.7443045],[-105.4557529,39.7440335],[-105.4555235,39.7439106],[-105.4552669,39.743779],[-105.4550649,39.7436792],[-105.4548545,39.7435803],[-105.4546801,39.7435064],[-105.454517,39.7434432],[-105.4543302,39.7433793],[-105.4541368,39.7433257],[-105.4539374,39.7432778],[-105.4537283,39.7432375],[-105.4535151,39.7432053],[-105.4533084,39.7431817],[-105.4530618,39.743167],[-105.45286,39.7431697],[-105.4526581,39.7431782],[-105.452484,39.7431895],[-105.452306,39.7431992],[-105.4521415,39.7432188],[-105.451978,39.7432476],[-105.451765,39.743285],[-105.451483,39.743357],[-105.4512719,39.743407],[-105.45106,39.7434817],[-105.4508939,39.7435436],[-105.449413,39.7441102],[-105.4489342,39.744294],[-105.4486675,39.7443807],[-105.4484868,39.7444232],[-105.448333,39.7444536],[-105.4481729,39.7444766],[-105.4480016,39.7444945],[-105.4478379,39.7444977],[-105.4477069,39.7445002],[-105.4475863,39.7444917],[-105.447451,39.7444884],[-105.447306,39.7444697],[-105.4471873,39.744444],[-105.4470527,39.7444162],[-105.44693,39.744383],[-105.446743,39.7443265],[-105.4465369,39.7442511],[-105.4455858,39.7438612],[-105.445402,39.7437775],[-105.4452236,39.7437128],[-105.4450462,39.7436531],[-105.444908,39.7436099],[-105.4447245,39.7435626],[-105.4445693,39.7435376],[-105.444394,39.7435055],[-105.444219,39.7434913],[-105.4440567,39.7434827],[-105.4438804,39.7434808],[-105.4436834,39.7434912],[-105.4435247,39.7435086],[-105.4433701,39.7435294],[-105.4432345,39.7435582],[-105.4430645,39.7435927],[-105.4429219,39.7436296],[-105.4428172,39.7436576],[-105.4427678,39.7436746],[-105.4426342,39.7437331],[-105.442494,39.743798],[-105.4424193,39.7438334],[-105.4422942,39.7439024],[-105.4420176,39.7440735],[-105.4415976,39.7443531],[-105.4412686,39.7445705],[-105.4409752,39.7447555],[-105.4407138,39.7449139],[-105.4405262,39.7450242],[-105.4403508,39.7451213],[-105.4401947,39.7451929],[-105.4399875,39.7452794],[-105.4398881,39.7453306],[-105.4398262,39.745361],[-105.439729,39.7454025],[-105.439621,39.7454468],[-105.4395492,39.7454731],[-105.4394467,39.7455073],[-105.4394109,39.7455181],[-105.4393368,39.7455382],[-105.4392834,39.7455511],[-105.4392131,39.7455665],[-105.4391531,39.7455773],[-105.4390643,39.7455911],[-105.4389655,39.745604],[-105.4389208,39.7456082],[-105.4387814,39.7456195],[-105.4386707,39.7456252],[-105.4385867,39.7456266],[-105.4384553,39.7456264],[-105.4383503,39.7456218],[-105.4382433,39.7456125],[-105.4381288,39.7456],[-105.4380078,39.7455837],[-105.4378671,39.7455578],[-105.4377444,39.7455318],[-105.4376084,39.7454957],[-105.4374452,39.7454464],[-105.4372542,39.7453798],[-105.4370975,39.7453194],[-105.4369532,39.7452588],[-105.4367044,39.7451532],[-105.4362642,39.7449626],[-105.4358966,39.7448036],[-105.4347863,39.7443096],[-105.4345913,39.7442253],[-105.4344221,39.7441509],[-105.434278,39.7440814],[-105.4341467,39.7440074],[-105.4340303,39.7439344],[-105.4338947,39.7438423],[-105.4337739,39.7437436],[-105.4336802,39.7436601],[-105.4335855,39.7435614],[-105.4335019,39.7434635],[-105.4333567,39.7432912],[-105.4332789,39.7431469],[-105.4332279,39.7430108],[-105.4331662,39.742819],[-105.4331313,39.7425818],[-105.4331179,39.742326],[-105.4331179,39.7420744],[-105.4331099,39.7417527],[-105.4330911,39.7415444],[-105.433067,39.7413732],[-105.4330106,39.7411958],[-105.4329248,39.7409648],[-105.4328202,39.74074],[-105.4325252,39.7401749],[-105.4321711,39.7394881],[-105.4319083,39.7389539],[-105.431689,39.738465],[-105.4315971,39.738298],[-105.4315032,39.7381454],[-105.431405,39.737999],[-105.4312028,39.7377432],[-105.4310285,39.7375225],[-105.4304518,39.7368336],[-105.4299127,39.7361571],[-105.429513,39.7356455],[-105.4289792,39.7349559],[-105.4282254,39.7340346],[-105.4280268,39.7337871],[-105.427852,39.7335354],[-105.4277124,39.7333168],[-105.427598,39.733111],[-105.427278,39.732492],[-105.4271581,39.7322586],[-105.4270213,39.7319698],[-105.4267906,39.7314624],[-105.4266511,39.7311736],[-105.4265224,39.730955],[-105.426407,39.7307714],[-105.4262967,39.7305878],[-105.4261415,39.7303774],[-105.4259482,39.7301546],[-105.4257471,39.7299607],[-105.4255347,39.729775],[-105.4253556,39.729641],[-105.4251598,39.7294904],[-105.4248916,39.7293068],[-105.4245269,39.7290778],[-105.4242501,39.7289087],[-105.423977,39.7287251],[-105.4237728,39.728558],[-105.4235738,39.7283888],[-105.4233652,39.7281723],[-105.4231616,39.7279309],[-105.4227297,39.7274131],[-105.4224803,39.7271367],[-105.4222523,39.7268994],[-105.4220672,39.7267179],[-105.4218366,39.7265137],[-105.4216381,39.7263548],[-105.4214181,39.7261981],[-105.4211258,39.7260165],[-105.4208522,39.7258536],[-105.4202862,39.7255462],[-105.4186528,39.7246467],[-105.418101,39.724355],[-105.4173921,39.7239721],[-105.4168235,39.7236833],[-105.416279,39.7234275],[-105.4156407,39.7231449],[-105.4150156,39.7228492],[-105.4143019,39.7225438],[-105.4128708,39.7219875],[-105.412173,39.7217717],[-105.4117421,39.7216499],[-105.4108422,39.7214118],[-105.4101662,39.7212363],[-105.4091837,39.7209987],[-105.4088096,39.7209166],[-105.4081373,39.720761],[-105.407447,39.720595],[-105.406711,39.720414],[-105.405409,39.720101],[-105.4048348,39.7199561],[-105.4037589,39.7196845],[-105.4032868,39.7195731],[-105.4028711,39.7194576],[-105.402466,39.7193276],[-105.402112,39.7192018],[-105.4017874,39.7190573],[-105.4014924,39.718915],[-105.4011893,39.718752],[-105.4009667,39.7186158],[-105.4007119,39.718457],[-105.4004276,39.718263],[-105.3995666,39.7176874],[-105.3990677,39.7173511],[-105.3986305,39.7170499],[-105.3983784,39.7168828],[-105.3981155,39.7167322],[-105.3977874,39.7165467],[-105.397461,39.7163835],[-105.3971633,39.7162411],[-105.3968924,39.7161194],[-105.3965893,39.7160059],[-105.3962862,39.715909],[-105.3959322,39.7157934],[-105.3955191,39.7156737],[-105.3951141,39.7155747],[-105.3947279,39.7154922],[-105.3944436,39.7154365],[-105.3941324,39.715389],[-105.3937381,39.7153498],[-105.3934842,39.7153347],[-105.3932205,39.7153189],[-105.392845,39.7153127],[-105.3924534,39.7153147],[-105.3920457,39.7153251],[-105.3916541,39.7153436],[-105.3912651,39.7153746],[-105.3901112,39.7154847],[-105.3891137,39.7155819],[-105.3882342,39.7156676],[-105.3877541,39.7157088],[-105.3873786,39.7157315],[-105.3868314,39.7157625],[-105.3863486,39.7157748],[-105.3859168,39.7157687],[-105.385691,39.7157519],[-105.3854713,39.7157335],[-105.3851063,39.7157088],[-105.3844603,39.7156263],[-105.3840767,39.7155603],[-105.383569,39.715453],[-105.3823864,39.7151332],[-105.3818345,39.7149888],[-105.381367,39.7148649],[-105.380922,39.7147618],[-105.3804773,39.7146896],[-105.3801849,39.7146483],[-105.379871,39.7146319],[-105.379487,39.7146174],[-105.3790957,39.7146318],[-105.378755,39.7146566],[-105.378436,39.7146937],[-105.3780653,39.7147495],[-105.3776958,39.7148196],[-105.3773445,39.7149104],[-105.376289,39.7152053],[-105.3753677,39.7154571],[-105.37504,39.7155355],[-105.3747553,39.7155891],[-105.3744799,39.7156325],[-105.3741365,39.7156655],[-105.3738898,39.7156841],[-105.3734794,39.7157006],[-105.3731173,39.7156799],[-105.3727552,39.7156593],[-105.3724307,39.7156304],[-105.3721544,39.715585],[-105.3718406,39.7155252],[-105.3715724,39.7154633],[-105.3712478,39.7153746],[-105.3709018,39.715257],[-105.3706336,39.7151538],[-105.3703734,39.7150445],[-105.3701213,39.7149207],[-105.3699282,39.7148196],[-105.3697264,39.7146937],[-105.3694997,39.7145551],[-105.3688906,39.7141157],[-105.368086,39.7135772],[-105.367799,39.7133853],[-105.367525,39.7132244],[-105.367254,39.7130861],[-105.3669194,39.7129293],[-105.3663747,39.7127148],[-105.3659835,39.7126095],[-105.3656429,39.7125208],[-105.3652888,39.7124548],[-105.36487,39.7123888],[-105.364449,39.7123474],[-105.3640575,39.7123321],[-105.3600047,39.7122897],[-105.3579737,39.7122608],[-105.356925,39.7122196],[-105.356593,39.7121927],[-105.3558474,39.7121081],[-105.3554207,39.7120379],[-105.354667,39.7118977],[-105.3542059,39.7117966],[-105.3530472,39.7114582],[-105.3523971,39.7112379],[-105.3520173,39.711093],[-105.3516793,39.7109485],[-105.3509926,39.7106328],[-105.3505233,39.7103955],[-105.350137,39.710181],[-105.3492278,39.7096053],[-105.3486457,39.7091761],[-105.3483534,39.7089388],[-105.3477349,39.7083843],[-105.3458106,39.7064564],[-105.3455396,39.7061913],[-105.3452474,39.7059055],[-105.344668,39.7053814],[-105.3444239,39.7051936],[-105.3441584,39.7050037],[-105.3435898,39.7046323],[-105.3432142,39.7044156],[-105.3430487,39.7043281],[-105.342828,39.7042113],[-105.3425061,39.7040504],[-105.3421306,39.7038853],[-105.3417283,39.7037326],[-105.341224,39.703553],[-105.3410722,39.7035037],[-105.3406903,39.7033797],[-105.3381341,39.7026038],[-105.3368145,39.7021973],[-105.3357309,39.701865],[-105.3353554,39.7017556],[-105.3349262,39.7016401],[-105.3345588,39.7015513],[-105.3342208,39.7014874],[-105.3339365,39.7014461],[-105.3336093,39.701411],[-105.3332793,39.7013904],[-105.3329172,39.7013842],[-105.3325712,39.7013966],[-105.332192,39.7014293],[-105.3317719,39.7014894],[-105.3314078,39.7015611],[-105.3310638,39.7016421],[-105.3307151,39.7017515],[-105.3304021,39.7018678],[-105.3300356,39.7020245],[-105.329719,39.7021891],[-105.3294089,39.7023541],[-105.3291487,39.7025027],[-105.3287786,39.7027379],[-105.3282663,39.7030867],[-105.327762,39.7034065],[-105.3269573,39.703956],[-105.3256822,39.7048041],[-105.3228321,39.7066463],[-105.322612,39.706779],[-105.3219194,39.7072406],[-105.321147,39.7077585],[-105.3206567,39.7080969],[-105.3196878,39.7087985],[-105.3188144,39.7094555],[-105.3187525,39.7095351],[-105.3177971,39.7103171],[-105.3166362,39.7113241],[-105.3154879,39.7123015],[-105.3146887,39.7129981],[-105.3143956,39.7132349],[-105.3140973,39.7134365],[-105.313883,39.713552],[-105.3136805,39.7136566],[-105.3133741,39.7137795],[-105.313178,39.7138592],[-105.312882,39.7139595],[-105.3126142,39.7140274],[-105.3123666,39.7140852],[-105.3120673,39.7141301],[-105.3117509,39.7141634],[-105.3114863,39.7141789],[-105.3112363,39.7141788],[-105.3109733,39.714168],[-105.3107032,39.7141385],[-105.3104323,39.7141013],[-105.3101238,39.7140414],[-105.3097832,39.7139589],[-105.3094191,39.7138701],[-105.3087597,39.7137024],[-105.3076516,39.7134179],[-105.3066463,39.7131516],[-105.3058523,39.7129414],[-105.305123,39.7127576],[-105.3042218,39.7125171],[-105.3032171,39.7122635],[-105.3031875,39.7122551],[-105.3024683,39.7120504],[-105.3006873,39.7115944],[-105.299818,39.7113713],[-105.2992006,39.7112128],[-105.2978656,39.7108702],[-105.2940327,39.7098695],[-105.2934266,39.7097333],[-105.2926675,39.7095744],[-105.2917287,39.7094155],[-105.2908543,39.7092979],[-105.2900202,39.7092133],[-105.2890438,39.7091473],[-105.2848569,39.708943],[-105.2842159,39.7088935],[-105.2839664,39.7088625],[-105.2834997,39.7087779],[-105.2832932,39.7087284],[-105.2826441,39.7085386],[-105.2821506,39.7083549],[-105.2798868,39.7073975],[-105.2777008,39.7064937],[-105.2773494,39.7063554],[-105.2768237,39.7061656],[-105.2763436,39.7060108],[-105.2760405,39.7059262],[-105.2756006,39.7058189],[-105.2752305,39.7057384],[-105.2746001,39.7056332],[-105.2714727,39.7051627],[-105.2663483,39.7044106],[-105.2639224,39.7040633],[-105.2632018,39.7039482],[-105.2623837,39.7038533],[-105.2615719,39.7038039],[-105.2608128,39.7037942],[-105.2600693,39.7038125],[-105.2593414,39.703877],[-105.2560476,39.7043206],[-105.2557472,39.7043557],[-105.25542,39.7043846],[-105.2548433,39.7044114],[-105.2545628,39.7044213],[-105.2543077,39.7044127],[-105.2540021,39.7043923],[-105.2537128,39.7043603],[-105.2533081,39.7043046],[-105.2523774,39.7041368],[-105.2511403,39.7038762],[-105.249971,39.7036407],[-105.2477086,39.7031485],[-105.2467901,39.7029856],[-105.2456322,39.702745],[-105.2453781,39.7026825],[-105.2449709,39.7025641],[-105.2446053,39.7024676],[-105.2435752,39.7021578],[-105.2429746,39.7019694],[-105.2420524,39.7016958],[-105.2415664,39.7015079],[-105.2413357,39.7014068],[-105.2411399,39.701314],[-105.24092,39.7011943],[-105.2406678,39.7010292],[-105.2404962,39.700895],[-105.2402575,39.7006949],[-105.2399678,39.7004142],[-105.2396486,39.7000861],[-105.2391712,39.6996238],[-105.2388225,39.6993184],[-105.2386937,39.6992152],[-105.2385589,39.6991209],[-105.2383826,39.699013],[-105.2379749,39.6987942],[-105.2377308,39.698689],[-105.2375216,39.6986126],[-105.2371166,39.6984929],[-105.2366901,39.6984],[-105.2361966,39.6983361],[-105.235569,39.6983113],[-105.2280427,39.6981916],[-105.227525,39.6981668],[-105.2273024,39.6981483],[-105.2270503,39.6981152],[-105.2268545,39.6980863],[-105.2263743,39.6979955],[-105.2261893,39.6979439],[-105.2206451,39.6963218],[-105.2203421,39.6962434],[-105.21976,39.6961237],[-105.2195079,39.6960803],[-105.2189574,39.6960062],[-105.2186905,39.6959784],[-105.2183391,39.6959536],[-105.2180079,39.6959422],[-105.2176257,39.6959412],[-105.2159909,39.6959639],[-105.2154799,39.6959649],[-105.2148576,39.6959484],[-105.2146042,39.6959309],[-105.2142863,39.6958948],[-105.2139846,39.6958494],[-105.2136882,39.6957926],[-105.2131799,39.6956709],[-105.2121244,39.6953974],[-105.2116651,39.695292],[-105.2114391,39.6952488],[-105.2109698,39.6951941],[-105.2107431,39.6951786],[-105.2104776,39.6951745],[-105.2101946,39.6951848],[-105.2098996,39.6952147],[-105.2095938,39.6952591],[-105.2092867,39.6953179],[-105.209001,39.6953871],[-105.2087288,39.6954717],[-105.2084954,39.6955584],[-105.2082446,39.6956678],[-105.2078611,39.6958679],[-105.2076572,39.6959918],[-105.2073465,39.6962098],[-105.2069943,39.6965085],[-105.2067252,39.6967647],[-105.2064568,39.6970281],[-105.2064458,39.6970389],[-105.2064278,39.6970566],[-105.2047537,39.69875],[-105.204232,39.6992752],[-105.2038767,39.6996457],[-105.2034944,39.700045],[-105.202471,39.7012485]]}},{"type":"Feature","properties":{"corridor":"I70","direction":"WESTBOUND","geometryVersion":1,"source":"OpenStreetMap","sourceRelationId":84533,"sourceRelationVersion":352,"sourceTimestamp":"2026-07-07T04:04:17Z","monitoredMileStart":206.0,"monitoredMileEnd":259.0},"geometry":{"type":"LineString","coordinates":[[-105.2029124,39.701244],[-105.2032504,39.7008684],[-105.2037413,39.7003454],[-105.2043876,39.6997086],[-105.2049482,39.6991421],[-105.2053271,39.6987553],[-105.2059232,39.6981464],[-105.206814,39.6972425],[-105.207064,39.6969951],[-105.2073327,39.6967306],[-105.2075338,39.696548],[-105.2077082,39.6964035],[-105.2078611,39.6962879],[-105.2080153,39.6961847],[-105.2081803,39.6960826],[-105.2083466,39.6959938],[-105.2085249,39.6959072],[-105.2087489,39.6958143],[-105.2089554,39.6957379],[-105.2091928,39.6956605],[-105.2094436,39.6955893],[-105.2096877,39.6955367],[-105.2099089,39.6954996],[-105.2101074,39.6954758],[-105.2103099,39.6954603],[-105.2105366,39.695449],[-105.2107257,39.69545],[-105.2109081,39.6954572],[-105.2111253,39.6954727],[-105.2113667,39.6955016],[-105.2115853,39.6955377],[-105.2118562,39.6955904],[-105.2120936,39.695643],[-105.2123739,39.6957121],[-105.2127266,39.695806],[-105.2131383,39.6959133],[-105.2133824,39.6959732],[-105.2136312,39.6960246],[-105.2139001,39.6960754],[-105.2141321,39.6961125],[-105.2143708,39.6961445],[-105.2146363,39.6961734],[-105.2148925,39.6961899],[-105.2151969,39.6962033],[-105.2154772,39.6962064],[-105.2159667,39.6962043],[-105.2165863,39.6961961],[-105.2171288,39.6961856],[-105.2174265,39.6961835],[-105.2177618,39.6961835],[-105.2181105,39.6961877],[-105.2183861,39.6961971],[-105.2187334,39.6962219],[-105.2190352,39.6962539],[-105.2193235,39.6962941],[-105.2196159,39.6963437],[-105.219878,39.6963961],[-105.2202106,39.6964704],[-105.2205861,39.6965633],[-105.2210367,39.6966871],[-105.2215812,39.696846],[-105.222174,39.6970194],[-105.2227346,39.6971907],[-105.223153,39.6973166],[-105.2234722,39.6974094],[-105.2238584,39.6975209],[-105.2246416,39.697752],[-105.2251352,39.6978923],[-105.2256153,39.6980368],[-105.2259345,39.6981338],[-105.2261624,39.6981957],[-105.2263743,39.6982452],[-105.2265782,39.6982865],[-105.2268169,39.6983319],[-105.2270315,39.6983588],[-105.2272702,39.6983876],[-105.2275304,39.6984062],[-105.2278496,39.6984227],[-105.2281419,39.698431],[-105.2284879,39.6984351],[-105.2289895,39.6984454],[-105.2299551,39.6984578],[-105.2308751,39.6984743],[-105.2315376,39.6984826],[-105.2323744,39.6984908],[-105.2333105,39.6985094],[-105.2340723,39.6985239],[-105.2349064,39.6985362],[-105.2355234,39.6985466],[-105.2358989,39.6985569],[-105.2361403,39.6985734],[-105.2363629,39.6985961],[-105.2365614,39.6986229],[-105.2367545,39.698658],[-105.2369878,39.6987117],[-105.2372373,39.6987736],[-105.2374975,39.6988602],[-105.237712,39.6989469],[-105.2378622,39.6990212],[-105.2380339,39.69911],[-105.2382056,39.6992049],[-105.238396,39.6993225],[-105.2385596,39.6994381],[-105.2387232,39.6995681],[-105.2389298,39.6997518],[-105.2392509,39.7000643],[-105.2396915,39.7005091],[-105.2398954,39.7007155],[-105.2400297,39.7008414],[-105.2401984,39.7009838],[-105.2403621,39.7011035],[-105.2405364,39.7012273],[-105.2407134,39.7013408],[-105.2409119,39.7014522],[-105.2410702,39.7015327],[-105.2412391,39.7016111],[-105.2414001,39.7016834],[-105.2415905,39.7017556],[-105.2417541,39.7018072],[-105.2420331,39.7018959],[-105.2425695,39.702061],[-105.2432749,39.7022715],[-105.2447267,39.7027197],[-105.2451907,39.702857],[-105.2456035,39.702955],[-105.2460188,39.7030414],[-105.2490571,39.7036761],[-105.249904,39.7038541],[-105.251093,39.7040891],[-105.25243,39.7043709],[-105.2528377,39.7044425],[-105.2531459,39.704505],[-105.2534864,39.7045531],[-105.2537622,39.7045858],[-105.2541098,39.7046212],[-105.2544761,39.7046495],[-105.2547635,39.7046569],[-105.2550597,39.7046495],[-105.2553993,39.7046306],[-105.2556669,39.7046177],[-105.2559886,39.7045788],[-105.2562314,39.7045505],[-105.256517,39.7045155],[-105.2566489,39.7044977],[-105.2584721,39.704232],[-105.2590399,39.704142],[-105.2594066,39.7040788],[-105.2596939,39.7040423],[-105.2600014,39.7040184],[-105.2603618,39.7039936],[-105.2607439,39.7039999],[-105.2610554,39.7039942],[-105.261423,39.7040023],[-105.2616071,39.704006],[-105.2620841,39.7040411],[-105.2624488,39.704075],[-105.2627855,39.7041128],[-105.2633164,39.7041867],[-105.2638493,39.7042748],[-105.2644628,39.704369],[-105.2652795,39.7044694],[-105.2662994,39.7046208],[-105.268482,39.704946],[-105.2703971,39.7052205],[-105.2718401,39.7054351],[-105.2738146,39.7057328],[-105.2743748,39.7058168],[-105.2748201,39.705887],[-105.2752761,39.7059695],[-105.2756569,39.7060541],[-105.2760298,39.706147],[-105.2763838,39.7062481],[-105.276711,39.7063575],[-105.2770356,39.7064751],[-105.2773896,39.7066051],[-105.2783847,39.7070157],[-105.2797151,39.7075667],[-105.2809114,39.7080764],[-105.2816356,39.7083817],[-105.2818957,39.7084932],[-105.2821747,39.7086005],[-105.2824188,39.7086933],[-105.2826495,39.7087697],[-105.2829794,39.7088687],[-105.2832422,39.7089347],[-105.2835051,39.7089946],[-105.2838001,39.7090503],[-105.2840925,39.7090895],[-105.2843419,39.7091143],[-105.2847416,39.7091473],[-105.285514,39.7091844],[-105.2865199,39.709236],[-105.2882472,39.7093247],[-105.288958,39.7093495],[-105.2894703,39.7093804],[-105.2898726,39.7094093],[-105.2902106,39.7094362],[-105.2905378,39.7094712],[-105.2908972,39.7095125],[-105.2913479,39.7095744],[-105.2917341,39.7096301],[-105.2921311,39.7096961],[-105.2925575,39.7097704],[-105.292925,39.7098385],[-105.2938343,39.7100428],[-105.2943499,39.7101777],[-105.2957574,39.7105433],[-105.2960557,39.710621],[-105.2961584,39.7106463],[-105.2963958,39.7107072],[-105.2985228,39.7112643],[-105.2997494,39.7115867],[-105.3009207,39.7118792],[-105.3024898,39.7122857],[-105.302796,39.7123654],[-105.3030822,39.7124505],[-105.3041709,39.7127359],[-105.3045925,39.7128416],[-105.3052386,39.7130074],[-105.3064781,39.7133303],[-105.3074724,39.7135912],[-105.3087735,39.7139299],[-105.3092995,39.7140673],[-105.3097174,39.7141793],[-105.3100257,39.7142453],[-105.3103204,39.7143012],[-105.3106047,39.7143423],[-105.3108699,39.7143691],[-105.3111582,39.7143875],[-105.3114651,39.7143849],[-105.3117477,39.714371],[-105.3120543,39.7143382],[-105.3123161,39.714297],[-105.3125931,39.714235],[-105.3129361,39.7141546],[-105.3131574,39.7140827],[-105.3133773,39.7140022],[-105.3135973,39.7139135],[-105.3137877,39.7138269],[-105.3139943,39.7137196],[-105.3142428,39.713604],[-105.3144417,39.7134823],[-105.3146937,39.7133069],[-105.3149379,39.7131212],[-105.3151634,39.712919],[-105.3155523,39.7125745],[-105.3161695,39.7119947],[-105.3163254,39.7118518],[-105.3165388,39.7116563],[-105.3168254,39.7114064],[-105.3176818,39.7106596],[-105.3192168,39.7093964],[-105.3202971,39.7085963],[-105.3207158,39.7082909],[-105.3211528,39.7079773],[-105.3220595,39.7073809],[-105.3228858,39.7068402],[-105.3232368,39.7066071],[-105.3244629,39.7057714],[-105.3258469,39.7048613],[-105.3279096,39.703518],[-105.3285962,39.7030702],[-105.3287652,39.7029567],[-105.3291407,39.7027152],[-105.3295135,39.7025027],[-105.3297597,39.7023603],[-105.3300365,39.7022158],[-105.3304201,39.7020652],[-105.3308439,39.7019269],[-105.3312757,39.7018114],[-105.3316459,39.7017309],[-105.3320482,39.7016669],[-105.332421,39.7016298],[-105.3327992,39.701605],[-105.3332284,39.701605],[-105.3335905,39.7016236],[-105.3339284,39.7016607],[-105.3342691,39.7017164],[-105.3346365,39.7017845],[-105.3349933,39.7018753],[-105.3354466,39.7020074],[-105.3367206,39.7023995],[-105.3379678,39.7027771],[-105.3406018,39.7035881],[-105.3411007,39.703747],[-105.34157,39.7039059],[-105.3424015,39.7042567],[-105.3427261,39.7044136],[-105.3430338,39.7045794],[-105.3430935,39.7046117],[-105.3433886,39.7047829],[-105.3436809,39.7049686],[-105.3439653,39.7051564],[-105.3442308,39.7053483],[-105.3445071,39.7055609],[-105.3447431,39.7057652],[-105.345327,39.7062947],[-105.3455987,39.7065906],[-105.3463015,39.7072942],[-105.347071,39.7080682],[-105.3473073,39.7083156],[-105.3475648,39.7085612],[-105.3478679,39.7088377],[-105.3481683,39.7091018],[-105.3484231,39.7093102],[-105.3486994,39.7095104],[-105.3490159,39.7097394],[-105.3492921,39.7099292],[-105.3496462,39.71015],[-105.3499278,39.7103233],[-105.3503677,39.710573],[-105.3508183,39.7108],[-105.3515103,39.711126],[-105.3519234,39.7112972],[-105.3523004,39.7114353],[-105.3529426,39.7116563],[-105.3535458,39.7118383],[-105.3540396,39.7119905],[-105.3544634,39.7120999],[-105.3549114,39.7121969],[-105.3553432,39.7122753],[-105.3557858,39.7123475],[-105.3561157,39.7123887],[-105.356518,39.7124259],[-105.3569257,39.7124527],[-105.3580093,39.7124898],[-105.3598976,39.7125084],[-105.3619629,39.7125332],[-105.3631404,39.7125435],[-105.3639504,39.71256],[-105.3640654,39.712564],[-105.3641743,39.7125678],[-105.3643635,39.7125744],[-105.3647577,39.7125992],[-105.3651628,39.7126425],[-105.3655275,39.7127024],[-105.3658548,39.7127828],[-105.3662249,39.7129046],[-105.3667962,39.7131253],[-105.3671181,39.7132822],[-105.3673461,39.713406],[-105.3676089,39.7135607],[-105.3678959,39.7137464],[-105.3687274,39.7143159],[-105.3692469,39.7146772],[-105.3695097,39.7148443],[-105.3697565,39.7149805],[-105.370022,39.7151146],[-105.3703064,39.7152549],[-105.3705933,39.7153766],[-105.3708428,39.7154716],[-105.3710976,39.7155582],[-105.3714463,39.7156531],[-105.3718084,39.7157336],[-105.3721383,39.7157914],[-105.3724494,39.7158306],[-105.3727767,39.7158574],[-105.3730774,39.715877],[-105.373474,39.7158986],[-105.3738742,39.7158784],[-105.3741741,39.7158553],[-105.3744933,39.7158223],[-105.374807,39.7157834],[-105.3750726,39.7157418],[-105.3753516,39.7156799],[-105.3756413,39.7156098],[-105.3764111,39.7154014],[-105.3774571,39.7151208],[-105.3777844,39.7150424],[-105.378122,39.7149661],[-105.378489,39.7149041],[-105.378814,39.7148691],[-105.3792217,39.7148381],[-105.3795297,39.7148361],[-105.3798439,39.7148567],[-105.3801493,39.7148794],[-105.380429,39.7149041],[-105.3808179,39.7149743],[-105.381263,39.7150651],[-105.3817774,39.7151971],[-105.3822308,39.715325],[-105.3835323,39.7156799],[-105.3839856,39.7157748],[-105.3844335,39.715845],[-105.3850907,39.7159213],[-105.3854635,39.7159482],[-105.3858445,39.715971],[-105.3863728,39.7159853],[-105.3867885,39.715977],[-105.3873437,39.7159502],[-105.3875556,39.7159375],[-105.3877568,39.7159255],[-105.3882676,39.715878],[-105.3891355,39.7157944],[-105.3912651,39.7155892],[-105.391705,39.7155541],[-105.3920591,39.7155355],[-105.3924909,39.7155252],[-105.3928369,39.7155231],[-105.3932258,39.7155314],[-105.3934623,39.7155504],[-105.3936389,39.7155644],[-105.394068,39.7156119],[-105.3944248,39.7156614],[-105.3947547,39.7157233],[-105.3950873,39.7157955],[-105.3954494,39.7158821],[-105.3958061,39.7159832],[-105.3961602,39.7160967],[-105.3964606,39.7161999],[-105.3967047,39.7162906],[-105.3970185,39.7164248],[-105.3972545,39.7165382],[-105.397563,39.7166909],[-105.3979438,39.7168993],[-105.398349,39.717147],[-105.3987807,39.717446],[-105.399301,39.717803],[-105.4002371,39.718424],[-105.4005536,39.7186323],[-105.4008218,39.7188036],[-105.4010793,39.7189583],[-105.4014029,39.7191313],[-105.4016989,39.7192719],[-105.4019698,39.7193936],[-105.4023427,39.7195339],[-105.4026672,39.719635],[-105.40304,39.7197444],[-105.4034477,39.7198393],[-105.4047084,39.7201487],[-105.4052958,39.7202973],[-105.4057664,39.7204129],[-105.4066293,39.7206261],[-105.407335,39.720796],[-105.4084742,39.721073],[-105.40924,39.7212515],[-105.409598,39.721335],[-105.409915,39.7214132],[-105.411023,39.7217126],[-105.4115304,39.7218613],[-105.4118226,39.721942],[-105.41197,39.7219877],[-105.4122191,39.7220622],[-105.412994,39.722287],[-105.4133957,39.7224206],[-105.4138945,39.7226064],[-105.4145678,39.7228726],[-105.4155602,39.7232769],[-105.4161691,39.7235307],[-105.4169764,39.7239061],[-105.4175879,39.7242383],[-105.4182639,39.7246034],[-105.4201521,39.7256349],[-105.4208388,39.7260124],[-105.4210775,39.7261527],[-105.4212974,39.726295],[-105.421498,39.726441],[-105.421738,39.726621],[-105.421954,39.726805],[-105.422185,39.727024],[-105.422423,39.727274],[-105.422668,39.7275596],[-105.4229765,39.7279164],[-105.4232206,39.7281867],[-105.423411,39.7283826],[-105.4235827,39.7285415],[-105.4237785,39.7286962],[-105.4239609,39.7288303],[-105.4243069,39.7290613],[-105.4247065,39.7293233],[-105.424961,39.72952],[-105.425149,39.729652],[-105.425402,39.729844],[-105.4255809,39.7300205],[-105.4257419,39.7301855],[-105.425935,39.7303939],[-105.4261093,39.7306043],[-105.4262461,39.7307817],[-105.426398,39.731005],[-105.4265331,39.7312479],[-105.426694,39.7315758],[-105.4268818,39.732009],[-105.4270132,39.7322854],[-105.4271661,39.7325928],[-105.4273405,39.7329166],[-105.427547,39.7333003],[-105.4276918,39.733554],[-105.427869,39.73381],[-105.4280191,39.734016],[-105.428142,39.734171],[-105.4288452,39.7349958],[-105.4297062,39.736091],[-105.4303445,39.736879],[-105.430916,39.737587],[-105.4310902,39.7378051],[-105.4312592,39.7380154],[-105.4313852,39.7381866],[-105.4314453,39.7382873],[-105.4314764,39.7383393],[-105.4315649,39.7385022],[-105.431673,39.738757],[-105.431901,39.739245],[-105.4326512,39.7406926],[-105.4327746,39.7409525],[-105.4328524,39.7411381],[-105.432906,39.7413093],[-105.4329516,39.7414928],[-105.4329677,39.7416681],[-105.4329785,39.7420517],[-105.4329811,39.742392],[-105.4330026,39.7426045],[-105.4330402,39.742819],[-105.4330965,39.7430396],[-105.4331474,39.7431716],[-105.433221,39.743309],[-105.4333009,39.7434368],[-105.4333574,39.7435084],[-105.4334319,39.7435965],[-105.4335128,39.7436826],[-105.4335974,39.7437615],[-105.4337207,39.7438642],[-105.4338124,39.7439293],[-105.4339477,39.7440201],[-105.4340612,39.7440912],[-105.4341823,39.744157],[-105.4343801,39.7442483],[-105.4346961,39.7443974],[-105.4352089,39.744636],[-105.4360288,39.7450083],[-105.4366948,39.7453178],[-105.4369323,39.7454245],[-105.4370332,39.7454695],[-105.4371835,39.7455336],[-105.4372435,39.7455562],[-105.4374661,39.7456346],[-105.4375585,39.7456649],[-105.4377815,39.7457311],[-105.4379002,39.7457618],[-105.4380039,39.7457864],[-105.438068,39.7457992],[-105.4381912,39.7458205],[-105.4382698,39.7458317],[-105.4383824,39.7458444],[-105.4385147,39.745855],[-105.4386437,39.7458609],[-105.4387598,39.7458628],[-105.4388792,39.7458615],[-105.4389959,39.7458552],[-105.4390781,39.7458491],[-105.4391837,39.7458385],[-105.4392262,39.745832],[-105.4392818,39.7458236],[-105.4393706,39.7458075],[-105.4394703,39.7457884],[-105.4396293,39.7457451],[-105.4398003,39.7456935],[-105.4399071,39.7456561],[-105.4401332,39.7455638],[-105.440266,39.7455005],[-105.4404571,39.745402],[-105.4406034,39.7453204],[-105.4412326,39.7449609],[-105.4418074,39.7446264],[-105.4422113,39.7443873],[-105.4424483,39.7442535],[-105.4427407,39.7440876],[-105.4429015,39.7440074],[-105.4430121,39.7439623],[-105.4431883,39.7439015],[-105.4433418,39.7438578],[-105.4435058,39.7438202],[-105.4436415,39.7437953],[-105.4437796,39.7437764],[-105.4439066,39.7437624],[-105.444032,39.7437541],[-105.4441694,39.7437521],[-105.4443145,39.7437571],[-105.4444521,39.7437688],[-105.444584,39.7437886],[-105.4447314,39.7438179],[-105.4449157,39.7438623],[-105.4451134,39.7439216],[-105.445368,39.7440054],[-105.4455092,39.7440571],[-105.4463897,39.7443758],[-105.4465536,39.7444313],[-105.4467094,39.744478],[-105.4468841,39.7445252],[-105.4470397,39.7445634],[-105.4471898,39.7445926],[-105.4473361,39.744616],[-105.4475005,39.7446314],[-105.4476298,39.7446379],[-105.4477729,39.7446401],[-105.4479535,39.7446309],[-105.448122,39.744616],[-105.4483052,39.7445917],[-105.448483,39.7445559],[-105.4486709,39.7445065],[-105.448867,39.7444453],[-105.4491038,39.7443623],[-105.4497222,39.7441289],[-105.4503211,39.7439015],[-105.4510527,39.7436331],[-105.4511943,39.7435862],[-105.4513441,39.7435422],[-105.4515069,39.7434973],[-105.4516657,39.7434569],[-105.4518605,39.7434186],[-105.4520558,39.7433846],[-105.4522235,39.7433609],[-105.4523895,39.7433423],[-105.4525572,39.7433303],[-105.452718,39.7433247],[-105.4528837,39.7433229],[-105.4530532,39.7433285],[-105.4532498,39.7433411],[-105.4534472,39.7433623],[-105.4536101,39.7433867],[-105.4537949,39.7434219],[-105.4539711,39.7434596],[-105.4541802,39.7435138],[-105.4543737,39.7435696],[-105.4545699,39.7436422],[-105.4547988,39.7437365],[-105.4550704,39.7438595],[-105.4553347,39.7439918],[-105.4557589,39.7442233],[-105.4561453,39.7444298],[-105.4566565,39.744713],[-105.4574205,39.7451354],[-105.457838,39.7453583],[-105.4581183,39.7455118],[-105.4583873,39.7456535],[-105.4587388,39.745829],[-105.4590898,39.7459826],[-105.4593312,39.7460754],[-105.4595484,39.7461538],[-105.4597351,39.746214],[-105.4599685,39.7462841],[-105.4602538,39.74636],[-105.4605881,39.7464387],[-105.460977,39.7465109],[-105.4613552,39.7465707],[-105.4618299,39.7466367],[-105.4624871,39.7467275],[-105.4633973,39.7468485],[-105.4635283,39.7468635],[-105.4637151,39.7468809],[-105.4638761,39.7468913],[-105.4640355,39.7468947],[-105.4641753,39.7468916],[-105.46433,39.746879],[-105.4644644,39.746861],[-105.4646152,39.7468359],[-105.4647497,39.7468072],[-105.4648924,39.746772],[-105.4650345,39.7467301],[-105.4651792,39.7466826],[-105.465328,39.746626],[-105.4654926,39.7465539],[-105.4656357,39.7464747],[-105.4657678,39.7463999],[-105.4658841,39.7463257],[-105.4660153,39.7462298],[-105.4661405,39.7461247],[-105.4665856,39.7457432],[-105.4667904,39.7455935],[-105.4669597,39.7454781],[-105.4670992,39.7453988],[-105.4672337,39.7453343],[-105.4673829,39.7452768],[-105.467527,39.7452264],[-105.4677094,39.7451771],[-105.4678727,39.7451394],[-105.4680374,39.7451115],[-105.4682091,39.7450968],[-105.4683971,39.7450878],[-105.4686033,39.7450872],[-105.4687473,39.7450982],[-105.4689431,39.7451189],[-105.4691953,39.7451601],[-105.4698685,39.7452838],[-105.4701582,39.7453313],[-105.4703599,39.7453621],[-105.470575,39.7453864],[-105.4708925,39.7453976],[-105.4711176,39.7453922],[-105.4713346,39.7453829],[-105.4716425,39.7453582],[-105.4721043,39.7452983],[-105.4726819,39.7452193],[-105.4736271,39.7450837],[-105.4762774,39.7446914],[-105.4769319,39.7445943],[-105.4776589,39.7444886],[-105.4793408,39.7442418],[-105.4802862,39.744098],[-105.4812491,39.7439557],[-105.4816649,39.7438959],[-105.4819143,39.7438753],[-105.4821798,39.7438629],[-105.482432,39.7438588],[-105.4827082,39.7438649],[-105.4829899,39.7438814],[-105.4832903,39.7439165],[-105.4835826,39.7439639],[-105.4838482,39.7440176],[-105.4840964,39.7440797],[-105.4843413,39.74415],[-105.484709,39.7442534],[-105.4854744,39.7444669],[-105.4860738,39.7446248],[-105.4862927,39.7446786],[-105.4864772,39.7447158],[-105.4866623,39.7447438],[-105.4868549,39.7447666],[-105.487092,39.7447842],[-105.4873014,39.7447925],[-105.4875481,39.744795],[-105.4877937,39.7447886],[-105.488019,39.7447703],[-105.4882353,39.744742],[-105.4884736,39.7446993],[-105.4886964,39.7446495],[-105.4888888,39.7446005],[-105.489083,39.744537],[-105.4892843,39.7444616],[-105.4894711,39.7443904],[-105.4896561,39.7443139],[-105.4898504,39.7442278],[-105.490077,39.7441239],[-105.4904665,39.7439381],[-105.4910882,39.7436408],[-105.4916526,39.7433724],[-105.4919971,39.7432094],[-105.4944756,39.7420255],[-105.4949609,39.7417926],[-105.4953252,39.7416173],[-105.4956316,39.7414738],[-105.4958677,39.7413583],[-105.4961749,39.7412233],[-105.49655,39.7410738],[-105.4969058,39.7409459],[-105.4975962,39.7407244],[-105.4979547,39.7406386],[-105.4983841,39.7405481],[-105.4985642,39.7405125],[-105.4987001,39.7404857],[-105.4988199,39.7404647],[-105.4990822,39.7404189],[-105.4994087,39.7403723],[-105.4998267,39.7403255],[-105.5002535,39.7402956],[-105.5006263,39.7402794],[-105.501038,39.7402727],[-105.5014841,39.7402803],[-105.5018002,39.7402881],[-105.50371,39.7403553],[-105.5052779,39.7404083],[-105.5055705,39.7404211],[-105.5058596,39.7404417],[-105.5061024,39.740464],[-105.5063385,39.7404939],[-105.5066248,39.7405409],[-105.5069074,39.7406033],[-105.5072408,39.7406948],[-105.5076312,39.7408133],[-105.5085116,39.7410952],[-105.5088946,39.7412154],[-105.5091155,39.7412768],[-105.5093427,39.7413307],[-105.5095839,39.7413757],[-105.5098271,39.7414158],[-105.5100808,39.7414466],[-105.5103144,39.741468],[-105.5105273,39.7414799],[-105.5107526,39.7414849],[-105.5110239,39.7414845],[-105.5115181,39.7414796],[-105.5120765,39.741472],[-105.5121167,39.7414715],[-105.5125003,39.7414662],[-105.5131554,39.7414573],[-105.5133899,39.7414487],[-105.5135855,39.7414404],[-105.513789,39.7414264],[-105.5139417,39.7414123],[-105.5141174,39.7413911],[-105.514717,39.7412836],[-105.5149638,39.7412272],[-105.5155426,39.7410961],[-105.5157969,39.7410445],[-105.5160259,39.7410077],[-105.5162197,39.7409854],[-105.516468,39.7409625],[-105.5167487,39.7409384],[-105.5176023,39.7408864],[-105.5178594,39.7408704],[-105.5181454,39.7408555],[-105.5183935,39.7408476],[-105.518664,39.740846],[-105.5189709,39.7408463],[-105.5193452,39.7408592],[-105.5196355,39.740875],[-105.519963,39.7409035],[-105.5203224,39.740943],[-105.5206338,39.7409885],[-105.520947,39.7410386],[-105.5211697,39.7410807],[-105.5214431,39.7411379],[-105.521807,39.741223],[-105.5220895,39.7412951],[-105.5224284,39.7413929],[-105.5229297,39.7415486],[-105.5238309,39.7418271],[-105.524271,39.74196],[-105.5250875,39.7422128],[-105.5260559,39.742513],[-105.5264092,39.7426153],[-105.5266672,39.7426849],[-105.5269573,39.7427608],[-105.5272094,39.7428189],[-105.5274297,39.7428633],[-105.527607,39.7428956],[-105.5278679,39.7429372],[-105.5281298,39.7429779],[-105.5285536,39.743035],[-105.5293145,39.7431391],[-105.5301602,39.7432535],[-105.5305613,39.7433061],[-105.5311451,39.7433897],[-105.5314519,39.7434387],[-105.531754,39.743498],[-105.5320372,39.7435587],[-105.5323056,39.743626],[-105.5324904,39.7436756],[-105.5327028,39.743739],[-105.5329249,39.7438075],[-105.5334239,39.7439588],[-105.5340415,39.7441373],[-105.5343649,39.7442215],[-105.5348102,39.7443275],[-105.5352568,39.744426],[-105.5360236,39.7445847],[-105.5363968,39.7446645],[-105.5365575,39.7447016],[-105.536689,39.744732],[-105.537159,39.744849],[-105.537719,39.745012],[-105.5378924,39.7450689],[-105.538109,39.74514],[-105.538441,39.745263],[-105.539258,39.745592],[-105.5396605,39.745759],[-105.5400009,39.7458999],[-105.540006,39.745902],[-105.540096,39.745937],[-105.540519,39.746089],[-105.541229,39.746307],[-105.5418743,39.7464938],[-105.542861,39.746731],[-105.543173,39.746815],[-105.54343,39.746889],[-105.5438127,39.7470088],[-105.544256,39.747161],[-105.5445338,39.747265],[-105.5448282,39.7473819],[-105.545184,39.74753],[-105.5454559,39.7476512],[-105.5456382,39.7477383],[-105.545923,39.7478788],[-105.5461184,39.7479782],[-105.546414,39.7481371],[-105.546664,39.748276],[-105.5469213,39.7484231],[-105.5471923,39.7485936],[-105.547505,39.748807],[-105.547773,39.749001],[-105.547902,39.749094],[-105.548142,39.749278],[-105.54881,39.74983],[-105.549154,39.75012],[-105.5495742,39.7504736],[-105.5497375,39.7506049],[-105.5498277,39.7506745],[-105.549949,39.750763],[-105.5501322,39.7508827],[-105.550329,39.7510031],[-105.5504108,39.7510501],[-105.5505732,39.7511366],[-105.5506417,39.7511688],[-105.5508088,39.7512424],[-105.5509527,39.7513024],[-105.5511389,39.751372],[-105.5514417,39.7514765],[-105.5522394,39.7517113],[-105.5524793,39.7517889],[-105.5527076,39.7518724],[-105.552929,39.7519597],[-105.553091,39.7520363],[-105.5532378,39.7521171],[-105.5533673,39.7521978],[-105.5536171,39.7523571],[-105.5537623,39.7524663],[-105.5538773,39.7525565],[-105.5539388,39.7526119],[-105.5540323,39.7526954],[-105.55417,39.7528309],[-105.5546271,39.7532852],[-105.5551532,39.7538297],[-105.5556851,39.7543767],[-105.5558895,39.7545622],[-105.55609,39.754734],[-105.556233,39.75484],[-105.556482,39.755],[-105.556669,39.755106],[-105.556702,39.755122],[-105.556918,39.755229],[-105.5571,39.755308],[-105.557386,39.755415],[-105.557566,39.755473],[-105.557775,39.755529],[-105.5579119,39.7555583],[-105.5581377,39.7556007],[-105.5583287,39.7556312],[-105.5584911,39.7556511],[-105.5586846,39.7556681],[-105.5588551,39.7556762],[-105.5590196,39.7556823],[-105.5591665,39.7556825],[-105.5593039,39.7556792],[-105.5594458,39.7556727],[-105.5596106,39.7556608],[-105.559807,39.7556444],[-105.5600873,39.7556214],[-105.5604356,39.7555903],[-105.5606226,39.7555747],[-105.5608321,39.755564],[-105.5610223,39.7555579],[-105.5611216,39.7555583],[-105.5612868,39.7555624],[-105.5614206,39.7555693],[-105.5615425,39.7555779],[-105.5617034,39.7555932],[-105.5618043,39.7556047],[-105.5619957,39.7556355],[-105.562188,39.755675],[-105.5624258,39.7557337],[-105.5626615,39.7558031],[-105.5628573,39.7558717],[-105.5630648,39.7559533],[-105.5633297,39.7560692],[-105.5649344,39.7567705],[-105.5686567,39.7583851],[-105.5697945,39.7588844],[-105.5701352,39.7590355],[-105.5704836,39.7591926],[-105.5708421,39.7593635],[-105.5712447,39.7595626],[-105.5716637,39.7597855],[-105.5721033,39.7600217],[-105.572853,39.7604367],[-105.5735498,39.7608158],[-105.5744988,39.7613158],[-105.5752961,39.7617302],[-105.5759348,39.7620673],[-105.5761498,39.7621758],[-105.5763683,39.7622756],[-105.5766129,39.7623879],[-105.5768741,39.7624975],[-105.5771303,39.7626025],[-105.5773577,39.7626888],[-105.5776335,39.7627854],[-105.5780247,39.7629106],[-105.578428,39.76303],[-105.57875,39.763115],[-105.579168,39.763213],[-105.57964,39.763309],[-105.580143,39.763393],[-105.580619,39.763456],[-105.58386,39.763783],[-105.585214,39.76392],[-105.5878807,39.7641884],[-105.5886228,39.7642637],[-105.5891976,39.7643211],[-105.5898096,39.7643757],[-105.5901277,39.7644018],[-105.5903832,39.7644171],[-105.5906121,39.7644285],[-105.59085,39.7644352],[-105.591039,39.7644386],[-105.5911772,39.7644398],[-105.5913862,39.7644388],[-105.5915424,39.7644353],[-105.5916685,39.7644305],[-105.5918362,39.7644222],[-105.592336,39.7643964],[-105.5938273,39.7643181],[-105.5968942,39.7641552],[-105.5976482,39.7641202],[-105.5981786,39.7641109],[-105.5984901,39.7641103],[-105.59877,39.7641161],[-105.5990091,39.7641271],[-105.5992187,39.7641425],[-105.5994362,39.76416],[-105.5996794,39.7641853],[-105.59993,39.7642174],[-105.6002122,39.7642571],[-105.6005241,39.7643064],[-105.6007921,39.7643489],[-105.6011245,39.7644065],[-105.6016128,39.7644887],[-105.6028633,39.7646993],[-105.6040591,39.7649004],[-105.6043506,39.7649474],[-105.6046302,39.7649884],[-105.6049681,39.7650331],[-105.6052939,39.7650714],[-105.605615,39.7651062],[-105.6059509,39.7651386],[-105.6063058,39.7651675],[-105.606653,39.7651911],[-105.607033,39.765213],[-105.6082211,39.7652696],[-105.608932,39.7653032],[-105.6104679,39.7653702],[-105.6110414,39.7653964],[-105.6113953,39.7654132],[-105.6120137,39.7654436],[-105.6125984,39.7654763],[-105.6130375,39.7655105],[-105.6135057,39.7655566],[-105.6138871,39.7655966],[-105.6142694,39.7656439],[-105.6146063,39.7656915],[-105.6150148,39.7657526],[-105.6158053,39.7658789],[-105.6165543,39.7660006],[-105.6180919,39.7662591],[-105.6185795,39.7663298],[-105.6188231,39.7663631],[-105.6191414,39.7664066],[-105.6194397,39.7664431],[-105.6197135,39.7664739],[-105.6198574,39.7664876],[-105.6201868,39.7665162],[-105.6207778,39.7665614],[-105.6210302,39.7665782],[-105.6214598,39.7665954],[-105.6219766,39.7666057],[-105.6226758,39.7666111],[-105.6232036,39.7666021],[-105.6237942,39.766579],[-105.6242613,39.7665422],[-105.6245319,39.7665209],[-105.6246573,39.7665071],[-105.6254164,39.7664234],[-105.6263344,39.7663268],[-105.6269177,39.7662683],[-105.627291,39.7662298],[-105.6274913,39.7662066],[-105.6276825,39.7661833],[-105.627905,39.7661536],[-105.6280716,39.7661287],[-105.6282181,39.7661045],[-105.6284332,39.7660648],[-105.6286649,39.7660181],[-105.6288691,39.7659726],[-105.6290134,39.7659392],[-105.6292608,39.7658797],[-105.6295094,39.7658136],[-105.6297204,39.7657542],[-105.6298665,39.7657106],[-105.6299693,39.7656776],[-105.630168,39.7656106],[-105.6303269,39.7655544],[-105.6306022,39.7654492],[-105.6309352,39.7653132],[-105.6313017,39.7651633],[-105.6315968,39.7650359],[-105.6318878,39.7649177],[-105.6322066,39.7647925],[-105.632507,39.7646859],[-105.632785,39.7645941],[-105.633079,39.764505],[-105.6333259,39.7644374],[-105.6335242,39.7643872],[-105.633734,39.7643392],[-105.6340286,39.7642764],[-105.6343065,39.7642223],[-105.634688,39.7641511],[-105.63556,39.7639925],[-105.6372522,39.7636893],[-105.6384292,39.7634887],[-105.6388673,39.7634136],[-105.6415027,39.7629252],[-105.642712,39.762709],[-105.643219,39.762615],[-105.6436671,39.7625304],[-105.6449488,39.7622883],[-105.6452498,39.7622292],[-105.6456005,39.7621611],[-105.647442,39.76172],[-105.64867,39.761397],[-105.64908,39.761289],[-105.6495476,39.7611614],[-105.6507804,39.7608459],[-105.6511302,39.7607579],[-105.6514861,39.7606628],[-105.6517611,39.7605865],[-105.6520631,39.7604973],[-105.6522887,39.7604275],[-105.6525841,39.7603255],[-105.6528493,39.7602296],[-105.6531363,39.7601158],[-105.6534245,39.759992],[-105.6536758,39.7598763],[-105.6539098,39.7597614],[-105.6541516,39.7596372],[-105.6544021,39.7594998],[-105.6546476,39.7593541],[-105.6548527,39.7592253],[-105.6550239,39.7591103],[-105.6552013,39.7589889],[-105.6553172,39.7589046],[-105.6554349,39.7588168],[-105.6555065,39.7587622],[-105.6556802,39.7586258],[-105.6558355,39.7585002],[-105.6559097,39.7584387],[-105.656076,39.7582915],[-105.6562051,39.7581751],[-105.6563411,39.7580466],[-105.6564223,39.7579671],[-105.656524,39.757866],[-105.6566233,39.7577656],[-105.6566852,39.7576993],[-105.6567858,39.7575895],[-105.6568307,39.7575397],[-105.657174,39.757145],[-105.6583697,39.7557118],[-105.659173,39.7547395],[-105.659471,39.7543783],[-105.6597899,39.7539938],[-105.6600354,39.7537185],[-105.6602997,39.7534343],[-105.6605072,39.753237],[-105.660891,39.7529143],[-105.661351,39.752582],[-105.6615574,39.752437],[-105.6618173,39.7522786],[-105.6620614,39.7521413],[-105.662315,39.752019],[-105.662629,39.751874],[-105.663182,39.751641],[-105.663949,39.751344],[-105.6666816,39.7502555],[-105.667602,39.7498869],[-105.6687231,39.7494455],[-105.670592,39.748697],[-105.67438,39.7471862],[-105.6747834,39.7470259],[-105.6777289,39.7458554],[-105.6780793,39.7457126],[-105.6784387,39.7455592],[-105.678806,39.7453939],[-105.6792141,39.7452046],[-105.6795571,39.7450338],[-105.6799339,39.7448415],[-105.6803185,39.7446333],[-105.6812135,39.744159],[-105.6819725,39.7437537],[-105.6822894,39.7435846],[-105.6825837,39.7434065],[-105.6829223,39.7431803],[-105.683157,39.7430182],[-105.6833594,39.742857],[-105.6835494,39.7426924],[-105.6837778,39.7424857],[-105.6839769,39.7422734],[-105.6841497,39.7420706],[-105.6842944,39.7418871],[-105.6844021,39.7417382],[-105.6845107,39.7415727],[-105.684648,39.7413557],[-105.6847969,39.7410953],[-105.6850156,39.7406826],[-105.6855978,39.739605],[-105.6862759,39.7383617],[-105.686425,39.738119],[-105.6866044,39.7378261],[-105.6867861,39.7375662],[-105.686898,39.737418],[-105.6870332,39.7372521],[-105.6873056,39.736942],[-105.6877874,39.7364397],[-105.6884163,39.7357973],[-105.688937,39.735279],[-105.6894555,39.734757],[-105.6904679,39.7337292],[-105.6907998,39.7333956],[-105.691138,39.7330405],[-105.6914757,39.7326525],[-105.691673,39.732398],[-105.6918074,39.7322075],[-105.691949,39.7320026],[-105.6920737,39.731801],[-105.6921762,39.7316213],[-105.6922657,39.7314616],[-105.6923623,39.7312779],[-105.6924187,39.7311634],[-105.6925085,39.7309637],[-105.692551,39.7308633],[-105.6928552,39.7300931],[-105.6930043,39.7297154],[-105.6936857,39.7279089],[-105.6938927,39.7273568],[-105.6941715,39.7266132],[-105.694431,39.7259239],[-105.6945579,39.7255863],[-105.6948989,39.7246797],[-105.6953338,39.7235008],[-105.6954638,39.7231164],[-105.6955255,39.722904],[-105.6955843,39.7226785],[-105.6956393,39.7224478],[-105.6956723,39.7222961],[-105.6957524,39.7218897],[-105.6958217,39.7214874],[-105.6958961,39.7209939],[-105.6961138,39.7195368],[-105.6961882,39.719058],[-105.696292,39.7183969],[-105.6966835,39.7156523],[-105.6967573,39.7151506],[-105.6969368,39.7139577],[-105.6970169,39.7133824],[-105.6972602,39.7114449],[-105.6972895,39.7112601],[-105.6973461,39.7109621],[-105.697403,39.7106996],[-105.6974731,39.7104451],[-105.6975496,39.7102144],[-105.6976211,39.7100265],[-105.6976992,39.7098464],[-105.6978118,39.7096389],[-105.6979215,39.7094616],[-105.6980372,39.7092935],[-105.6981611,39.7091286],[-105.6982943,39.7089625],[-105.6984813,39.7087526],[-105.6986132,39.7086174],[-105.6987455,39.7084884],[-105.6989268,39.7083248],[-105.6991283,39.7081473],[-105.6994852,39.7078582],[-105.6998902,39.7075365],[-105.7017172,39.7060657],[-105.7024162,39.7054999],[-105.7029471,39.705073],[-105.7034939,39.7046556],[-105.7038463,39.7043899],[-105.7040244,39.7042568],[-105.704349,39.704027],[-105.7046214,39.7038321],[-105.7048437,39.7036759],[-105.7051203,39.7034979],[-105.705704,39.703135],[-105.706093,39.7028733],[-105.7063898,39.7026686],[-105.7066244,39.7024831],[-105.707126,39.7020888],[-105.7075208,39.7017646],[-105.7081025,39.7013067],[-105.7083696,39.7011017],[-105.7085487,39.700972],[-105.70875,39.70084],[-105.70895,39.700714],[-105.709103,39.700626],[-105.709208,39.700566],[-105.709363,39.700482],[-105.709673,39.700333],[-105.709819,39.7002707],[-105.71,39.700192],[-105.710162,39.700129],[-105.7105319,39.7000002],[-105.7110124,39.6998491],[-105.7119394,39.6995829],[-105.7129472,39.6992988],[-105.7135258,39.6991344],[-105.7140902,39.6989784],[-105.7144656,39.6988802],[-105.7148265,39.6987974],[-105.7154916,39.6986605],[-105.7160293,39.6985589],[-105.7163933,39.6984971],[-105.7167204,39.698447],[-105.7174056,39.6983512],[-105.7183161,39.6982292],[-105.7186601,39.6981762],[-105.7189111,39.6981329],[-105.7191518,39.6980822],[-105.7194533,39.6980086],[-105.7197061,39.6979394],[-105.7199344,39.6978736],[-105.7201736,39.6977921],[-105.7204111,39.6977056],[-105.7206452,39.6976116],[-105.7209411,39.6974767],[-105.721283,39.6973083],[-105.7216203,39.6971284],[-105.7218292,39.6970165],[-105.7221973,39.696816],[-105.7231277,39.6963024],[-105.7235178,39.6961001],[-105.723913,39.69588],[-105.724409,39.695602],[-105.7254867,39.6950189],[-105.7259594,39.6947986],[-105.7263,39.69467],[-105.726635,39.69456],[-105.726981,39.694467],[-105.727316,39.694394],[-105.727466,39.694368],[-105.727675,39.694338],[-105.727853,39.694317],[-105.728229,39.694287],[-105.72865,39.69427],[-105.728945,39.694266],[-105.729305,39.694279],[-105.729792,39.69433],[-105.730242,39.694397],[-105.730591,39.694449],[-105.730672,39.69446],[-105.730861,39.694486],[-105.731262,39.694541],[-105.731596,39.694596],[-105.733144,39.694837],[-105.733886,39.6949328],[-105.734939,39.695106],[-105.738627,39.695672],[-105.74005,39.6958687],[-105.7407458,39.6959786],[-105.7411707,39.6960465],[-105.742872,39.696316],[-105.744514,39.696565],[-105.746,39.696777],[-105.746174,39.696795],[-105.746667,39.696828],[-105.747147,39.696847],[-105.747572,39.696854],[-105.747835,39.696851],[-105.748637,39.696822],[-105.7506056,39.6967619],[-105.754169,39.696653],[-105.75621,39.696564],[-105.757043,39.69647],[-105.757593,39.696397],[-105.758954,39.696194],[-105.760403,39.695984],[-105.760729,39.695948],[-105.760954,39.695929],[-105.761391,39.695909],[-105.761604,39.695908],[-105.762006,39.69592],[-105.762407,39.695952],[-105.762788,39.695997],[-105.763273,39.696073],[-105.7640099,39.6962078],[-105.764372,39.696274],[-105.764808,39.696347],[-105.765124,39.696384],[-105.7652323,39.6963919],[-105.765569,39.6964121],[-105.7657799,39.6964191],[-105.766171,39.696416],[-105.76675,39.696377],[-105.767313,39.696299],[-105.767923,39.696181],[-105.7681509,39.6961309],[-105.768413,39.696072],[-105.771121,39.695388],[-105.771666,39.695277],[-105.771981,39.695226],[-105.772294,39.695184],[-105.772729,39.695139],[-105.773212,39.69511],[-105.7789473,39.6948908],[-105.780093,39.694847],[-105.780871,39.694814],[-105.781436,39.694783],[-105.781896,39.694751],[-105.784835,39.694499],[-105.785291,39.694457],[-105.785716,39.694428],[-105.786248,39.694425],[-105.786795,39.694459],[-105.787306,39.694527],[-105.78783,39.694637],[-105.788369,39.694791],[-105.788777,39.694935],[-105.789648,39.695274],[-105.789999,39.695404],[-105.790417,39.695542],[-105.791016,39.695691],[-105.791482,39.695782],[-105.791921,39.695844],[-105.792303,39.69588],[-105.792797,39.695901],[-105.793166,39.6959],[-105.793578,39.695878],[-105.793999,39.695835],[-105.794387,39.695778],[-105.794788,39.6957],[-105.795257,39.695586],[-105.795687,39.695459],[-105.7992032,39.6943096],[-105.800759,39.693801],[-105.801246,39.693653],[-105.801969,39.693417],[-105.80274,39.693228],[-105.804937,39.692741],[-105.807213,39.692234],[-105.807842,39.692104],[-105.80867,39.691961],[-105.809207,39.691895],[-105.809755,39.691864],[-105.810291,39.691879],[-105.810819,39.691929],[-105.811238,39.691989],[-105.811998,39.692137],[-105.812886,39.692302],[-105.81638,39.692847],[-105.81809,39.693091],[-105.821552,39.693547],[-105.822409,39.693692],[-105.823099,39.693866],[-105.823228,39.693899],[-105.824004,39.694171],[-105.824714,39.694482],[-105.826639,39.69543],[-105.828902,39.696552],[-105.832734,39.698469],[-105.833471,39.698806],[-105.834051,39.699045],[-105.834641,39.699276],[-105.835421,39.699552],[-105.836004,39.699745],[-105.836907,39.700043],[-105.839979,39.701044],[-105.841233,39.701452],[-105.842497,39.701822],[-105.843267,39.701988],[-105.843639,39.70206],[-105.844057,39.702109],[-105.844447,39.702131],[-105.845107,39.702132],[-105.846455,39.702108],[-105.847108,39.702077],[-105.849057,39.70201],[-105.850731,39.701953],[-105.853388,39.701879],[-105.854981,39.701822],[-105.856155,39.701789],[-105.8566999,39.7017736],[-105.8574917,39.701754],[-105.858968,39.701718],[-105.86106,39.7016879],[-105.8616909,39.7016566],[-105.8625293,39.7015675],[-105.863111,39.701474],[-105.8638396,39.7013001],[-105.8641617,39.7011947],[-105.864573,39.7010418],[-105.8648257,39.7009306],[-105.8652234,39.7007496],[-105.8684584,39.6989786],[-105.869629,39.6983539],[-105.872861,39.696576],[-105.873069,39.696461],[-105.8738731,39.6960379],[-105.8747576,39.6954915],[-105.875426,39.695011],[-105.876016,39.694565],[-105.87644,39.694226],[-105.876719,39.693996],[-105.87696,39.693769],[-105.877389,39.6934],[-105.877702,39.693139],[-105.879339,39.691644],[-105.879759,39.691251],[-105.8808682,39.6902449],[-105.8814724,39.6896734],[-105.8818949,39.6892529],[-105.8825742,39.6885654],[-105.8851742,39.68582],[-105.8866529,39.6842659],[-105.8871393,39.6837801],[-105.8874337,39.6835021],[-105.8876771,39.6832942],[-105.887976,39.6830668],[-105.8882819,39.6828644],[-105.8885155,39.6827112],[-105.888822,39.6825609],[-105.8892399,39.6823603],[-105.8894983,39.6822592],[-105.8897958,39.6821503],[-105.8901172,39.6820571],[-105.890395,39.6819784],[-105.8907391,39.6819083],[-105.8910406,39.6818458],[-105.8914987,39.6817799],[-105.8918471,39.6817514],[-105.8922482,39.6817267],[-105.8930603,39.6817226],[-105.8955543,39.6817473],[-105.8961042,39.6817531],[-105.8964939,39.6817438],[-105.8967997,39.6817213],[-105.8970372,39.6817018],[-105.897275,39.6816738],[-105.8975095,39.6816288],[-105.8980135,39.6815138],[-105.8982824,39.6814422],[-105.898948,39.6811648],[-105.8992366,39.6810226],[-105.9003696,39.6804513],[-105.900782,39.6802326],[-105.9010718,39.6800853],[-105.9020077,39.6796497],[-105.9026332,39.6794385],[-105.903076,39.6793139],[-105.9034194,39.6792274],[-105.9038606,39.6791631],[-105.9041342,39.6791321],[-105.9044026,39.6791087],[-105.9047726,39.6790867],[-105.9051302,39.6790763],[-105.9055531,39.6790723],[-105.905934,39.6790752],[-105.9147209,39.6792828],[-105.9187612,39.6793284],[-105.9208633,39.6793087],[-105.933953,39.6790449],[-105.9345478,39.6790269],[-105.9351431,39.6789923],[-105.9358568,39.6788654],[-105.9359041,39.678857],[-105.936227,39.6787963],[-105.9363984,39.6787546],[-105.9367884,39.6786285],[-105.9373793,39.6784152],[-105.9400455,39.6773372],[-105.9402403,39.6772726],[-105.9408471,39.677086],[-105.9413728,39.6769562],[-105.9417895,39.6768685],[-105.942258,39.6768105],[-105.9427446,39.6767571],[-105.9432725,39.676732],[-105.9439382,39.6767268],[-105.9443891,39.6767598],[-105.9449517,39.6768289],[-105.9458579,39.6769391],[-105.9465896,39.6770236],[-105.9471959,39.6770727],[-105.9481691,39.6771201],[-105.9488817,39.6771283],[-105.9503354,39.6771339],[-105.9515082,39.6771265],[-105.9530364,39.6771133],[-105.9535517,39.6770799],[-105.9539675,39.6770259],[-105.9544969,39.6769142],[-105.9550263,39.6767699],[-105.955649,39.6765218],[-105.9564069,39.6761552],[-105.9589338,39.6749107],[-105.9594272,39.6746748],[-105.9599124,39.6744899],[-105.9605092,39.6743029],[-105.96107,39.6741901],[-105.9615197,39.6741383],[-105.9624047,39.6740936],[-105.9631038,39.6740607],[-105.9642282,39.6740162],[-105.9657415,39.6739455],[-105.9671243,39.6738783],[-105.96811,39.673842],[-105.9685537,39.6738093],[-105.9690291,39.6737518],[-105.969475,39.6736693],[-105.9700729,39.6735225],[-105.9706147,39.6733141],[-105.9710452,39.6731074],[-105.9715435,39.6727925],[-105.9719693,39.6724626],[-105.9723594,39.6721325],[-105.9734456,39.6712431],[-105.9744612,39.670405],[-105.9749864,39.6699236],[-105.9753555,39.6695301],[-105.9755827,39.6692515],[-105.9758341,39.6689013],[-105.9760436,39.6685581],[-105.9763274,39.6679965],[-105.9766317,39.6674083],[-105.9768892,39.6669613],[-105.9771747,39.6665681],[-105.977474,39.6662465],[-105.9777884,39.6659213],[-105.9785053,39.6652759],[-105.978991,39.6648598],[-105.98041,39.66369],[-105.9812896,39.6630431],[-105.981618,39.6628049],[-105.9820438,39.6625688],[-105.9825785,39.6623074],[-105.982961,39.6621549],[-105.9852,39.6613883],[-105.9860851,39.6610906],[-105.9867557,39.6608328],[-105.9876969,39.6603998],[-105.9882439,39.6601136],[-105.9888668,39.6597602],[-105.9901638,39.658917],[-105.9911935,39.6582587],[-105.9915718,39.6580391],[-105.9920471,39.6578151],[-105.9927327,39.657544],[-105.9936202,39.6572837],[-105.9946006,39.657011],[-105.9950571,39.6568658],[-105.9956316,39.6566573],[-105.9961917,39.6563945],[-105.9968857,39.6560546],[-105.9973702,39.6557731],[-105.9980918,39.6553798],[-105.9987233,39.6550677],[-105.9992719,39.6548268],[-106.0000372,39.6545233],[-106.0007988,39.6542739],[-106.0015216,39.6540697],[-106.003017,39.6537282],[-106.0038467,39.6535663],[-106.0045903,39.6534696],[-106.0053914,39.6534119],[-106.0085294,39.6533528],[-106.0090715,39.6533365],[-106.0096291,39.6532922],[-106.010389,39.6531665],[-106.0124575,39.6527606],[-106.013891,39.6524733],[-106.0145379,39.6523255],[-106.015049,39.6521502],[-106.01562,39.6519027],[-106.0162106,39.6515642],[-106.0169488,39.651074],[-106.0177116,39.6505797],[-106.0182994,39.6502828],[-106.0188169,39.6500803],[-106.0193854,39.6499146],[-106.0205641,39.649626],[-106.0212467,39.6494619],[-106.0216905,39.6493159],[-106.0220863,39.6491548],[-106.0221383,39.6491279],[-106.022577,39.6489024],[-106.0230225,39.6486287],[-106.02464,39.647567],[-106.0263719,39.6464289],[-106.0268028,39.6461506],[-106.0273002,39.6458657],[-106.0277099,39.6456755],[-106.028155,39.6455193],[-106.028508,39.6454185],[-106.0289393,39.6453264],[-106.0293986,39.6452642],[-106.032521,39.644995],[-106.0335947,39.6449004],[-106.0341199,39.6448247],[-106.0347028,39.6447022],[-106.0350416,39.6446267],[-106.0355393,39.6444679],[-106.0360489,39.6442685],[-106.0368962,39.6438872],[-106.0381045,39.6433158],[-106.0418453,39.6415467],[-106.0420508,39.6414498],[-106.0441953,39.6404468],[-106.0456747,39.6397461],[-106.046444,39.6393524],[-106.0475085,39.6387348],[-106.0479728,39.6384337],[-106.0485759,39.6380115],[-106.0491744,39.637557],[-106.0498974,39.6369685],[-106.0511706,39.6359067],[-106.0517507,39.635425],[-106.0522509,39.6350158],[-106.0526677,39.6347442],[-106.053003,39.6345456],[-106.0534705,39.6343144],[-106.0554877,39.633492],[-106.0606033,39.631448]]}}]}
